{
"type": "FeatureCollection",
"name": "Sumber_Makanan_aman",
"crs": { "type": "name", "properties": { "name": "urn:ogc:def:crs:EPSG::32748" } },
"features": [
{ "type": "Feature", "properties": { "id": "way/188727003", "amenity": "restaurant", "building": "yes", "name": "Sederhana" }, "geometry": { "type": "Point", "coordinates": [ 703854.930075120180845, 9309643.881372241303325 ] } },
{ "type": "Feature", "properties": { "id": "way/250082884", "amenity": null, "building": "yes", "name": "Circle K" }, "geometry": { "type": "Point", "coordinates": [ 705245.460727114696056, 9311437.524650288745761 ] } },
{ "type": "Feature", "properties": { "id": "way/251109083", "amenity": "restaurant", "building": "yes", "name": "Bebek Kaleyo" }, "geometry": { "type": "Point", "coordinates": [ 705449.690939579741098, 9311478.691729407757521 ] } },
{ "type": "Feature", "properties": { "id": "way/274478943", "amenity": "restaurant", "building": "yes", "name": null }, "geometry": { "type": "Point", "coordinates": [ 705430.346156459418125, 9311482.509132392704487 ] } },
{ "type": "Feature", "properties": { "id": "way/481718037", "amenity": null, "building": "yes", "name": "Indomaret" }, "geometry": { "type": "Point", "coordinates": [ 705436.30667490477208, 9310301.451354034245014 ] } },
{ "type": "Feature", "properties": { "id": "way/481726494", "amenity": "restaurant", "building": "yes", "name": "Bebek Malio" }, "geometry": { "type": "Point", "coordinates": [ 705459.44547159736976, 9310152.566446162760258 ] } },
{ "type": "Feature", "properties": { "id": "way/481928015", "amenity": "cafe", "building": "yes", "name": "Rote" }, "geometry": { "type": "Point", "coordinates": [ 704907.337655148818158, 9310150.206437133252621 ] } },
{ "type": "Feature", "properties": { "id": "way/481975212", "amenity": "restaurant", "building": "yes", "name": "Mie Abi" }, "geometry": { "type": "Point", "coordinates": [ 705254.011567761423066, 9310567.072110781446099 ] } },
{ "type": "Feature", "properties": { "id": "way/482095238", "amenity": "restaurant", "building": "yes", "name": "Sambal Hejo Sambal Dadak" }, "geometry": { "type": "Point", "coordinates": [ 705363.34317289001774, 9311121.453720074146986 ] } },
{ "type": "Feature", "properties": { "id": "way/482127878", "amenity": "restaurant", "building": "yes", "name": "Sogogi Shabu Tebet" }, "geometry": { "type": "Point", "coordinates": [ 705381.525259634014219, 9311193.05958004668355 ] } },
{ "type": "Feature", "properties": { "id": "way/482127889", "amenity": "restaurant", "building": "yes", "name": "Smarapura" }, "geometry": { "type": "Point", "coordinates": [ 705410.994631336419843, 9311131.848595760762691 ] } },
{ "type": "Feature", "properties": { "id": "way/482141483", "amenity": "restaurant", "building": "yes", "name": "Penang Bistro - Gatot Subroto" }, "geometry": { "type": "Point", "coordinates": [ 703540.076644274988212, 9309720.146001050248742 ] } },
{ "type": "Feature", "properties": { "id": "way/482141485", "amenity": "restaurant", "building": "yes", "name": "Holywings Club V Gatsu - Menteng Dalam" }, "geometry": { "type": "Point", "coordinates": [ 703561.456425412325189, 9309719.275011194869876 ] } },
{ "type": "Feature", "properties": { "id": "way/482158693", "amenity": null, "building": "yes", "name": "Larisia Bakery & Cake" }, "geometry": { "type": "Point", "coordinates": [ 705445.539300274802372, 9310091.485922269523144 ] } },
{ "type": "Feature", "properties": { "id": "way/482158736", "amenity": "restaurant", "building": "yes", "name": null }, "geometry": { "type": "Point", "coordinates": [ 705415.237850994919427, 9310151.881594339385629 ] } },
{ "type": "Feature", "properties": { "id": "way/482181017", "amenity": "restaurant", "building": "yes", "name": "Pie Pisang" }, "geometry": { "type": "Point", "coordinates": [ 705326.7652414314216, 9310898.554379187524319 ] } },
{ "type": "Feature", "properties": { "id": "way/482186168", "amenity": "restaurant", "building": "yes", "name": "Bakmi Jowo Jape Methe" }, "geometry": { "type": "Point", "coordinates": [ 705469.64037599042058, 9310599.206220097839832 ] } },
{ "type": "Feature", "properties": { "id": "way/482186170", "amenity": "restaurant", "building": "yes", "name": "Warteg Nonstop" }, "geometry": { "type": "Point", "coordinates": [ 705458.661246946197934, 9310564.715053346008062 ] } },
{ "type": "Feature", "properties": { "id": "way/482186202", "amenity": "restaurant", "building": "yes", "name": "Rumah Makan Minang Sakato" }, "geometry": { "type": "Point", "coordinates": [ 705428.448410911485553, 9310574.930401422083378 ] } },
{ "type": "Feature", "properties": { "id": "way/482194043", "amenity": "cafe", "building": "yes", "name": "Kopilojik Tebet" }, "geometry": { "type": "Point", "coordinates": [ 705235.12899869447574, 9310784.083308078348637 ] } },
{ "type": "Feature", "properties": { "id": "way/482347577", "amenity": "cafe", "building": "yes", "name": "Mixue" }, "geometry": { "type": "Point", "coordinates": [ 705279.556414694176055, 9311212.386183658614755 ] } },
{ "type": "Feature", "properties": { "id": "way/482347701", "amenity": "restaurant", "building": "yes", "name": "Mie Gacoan" }, "geometry": { "type": "Point", "coordinates": [ 705103.220429700915702, 9311121.217536291107535 ] } },
{ "type": "Feature", "properties": { "id": "way/482353610", "amenity": "cafe", "building": "yes", "name": "Rocelli Coffee" }, "geometry": { "type": "Point", "coordinates": [ 705595.065628122771159, 9311080.843994909897447 ] } },
{ "type": "Feature", "properties": { "id": "way/482365594", "amenity": null, "building": "yes", "name": "Alfamidi" }, "geometry": { "type": "Point", "coordinates": [ 705468.439356178976595, 9310651.038361258804798 ] } },
{ "type": "Feature", "properties": { "id": "way/482365601", "amenity": "restaurant", "building": "yes", "name": null }, "geometry": { "type": "Point", "coordinates": [ 705402.893303116550669, 9310694.680190734565258 ] } },
{ "type": "Feature", "properties": { "id": "way/482365631", "amenity": "cafe", "building": "yes", "name": "Kopi Buntu" }, "geometry": { "type": "Point", "coordinates": [ 705328.566955127171241, 9310812.90928796492517 ] } },
{ "type": "Feature", "properties": { "id": "way/482365647", "amenity": "restaurant", "building": "yes", "name": "Bakmi Berdikari" }, "geometry": { "type": "Point", "coordinates": [ 705422.419260127237067, 9310736.131305547431111 ] } },
{ "type": "Feature", "properties": { "id": "way/482377730", "amenity": "restaurant", "building": "yes", "name": "Bakso Kemon - Tebet" }, "geometry": { "type": "Point", "coordinates": [ 705252.293384175281972, 9311309.379925798624754 ] } },
{ "type": "Feature", "properties": { "id": "way/482402881", "amenity": null, "building": "yes", "name": "Circle K" }, "geometry": { "type": "Point", "coordinates": [ 704957.229085949948058, 9311473.530622499063611 ] } },
{ "type": "Feature", "properties": { "id": "way/482420864", "amenity": null, "building": "yes", "name": "Indomaret" }, "geometry": { "type": "Point", "coordinates": [ 704211.003724272944964, 9309995.352162422612309 ] } },
{ "type": "Feature", "properties": { "id": "way/483342339", "amenity": "cafe", "building": "yes", "name": "Kopibrug - Tebet Barat" }, "geometry": { "type": "Point", "coordinates": [ 704285.352799484273419, 9310607.212670421227813 ] } },
{ "type": "Feature", "properties": { "id": "way/483342695", "amenity": "restaurant", "building": "yes", "name": "Pondok Mutiara 68" }, "geometry": { "type": "Point", "coordinates": [ 704309.456298685050569, 9310341.000276332721114 ] } },
{ "type": "Feature", "properties": { "id": "way/483346204", "amenity": "cafe", "building": "yes", "name": "Unclebrew X Caesan Kitchen & Tea" }, "geometry": { "type": "Point", "coordinates": [ 704277.773245500167832, 9310702.643563246354461 ] } },
{ "type": "Feature", "properties": { "id": "way/483406651", "amenity": "restaurant", "building": "yes", "name": "Shamrock Kitchen And Bar" }, "geometry": { "type": "Point", "coordinates": [ 704352.161961785401218, 9311557.040972439572215 ] } },
{ "type": "Feature", "properties": { "id": "way/483583697", "amenity": "cafe", "building": "house", "name": "Nyeger' & Toast" }, "geometry": { "type": "Point", "coordinates": [ 704034.367164651397616, 9311358.35106635093689 ] } },
{ "type": "Feature", "properties": { "id": "way/483594036", "amenity": "restaurant", "building": "yes", "name": "Warteg Pink" }, "geometry": { "type": "Point", "coordinates": [ 704256.089966302737594, 9311259.185775680467486 ] } },
{ "type": "Feature", "properties": { "id": "way/484662682", "amenity": "restaurant", "building": "yes", "name": "Burcik Resto 263" }, "geometry": { "type": "Point", "coordinates": [ 704758.581215706304647, 9310517.924921773374081 ] } },
{ "type": "Feature", "properties": { "id": "way/484662683", "amenity": "internet_cafe", "building": "yes", "name": "Cyber Net & Cafe" }, "geometry": { "type": "Point", "coordinates": [ 704749.217229801113717, 9310536.704682663083076 ] } },
{ "type": "Feature", "properties": { "id": "way/484865547", "amenity": "cafe", "building": "yes", "name": "Lektur" }, "geometry": { "type": "Point", "coordinates": [ 705479.456393118947744, 9310381.972202450037003 ] } },
{ "type": "Feature", "properties": { "id": "way/486507433", "amenity": "restaurant", "building": "yes", "name": "RM Padang \"Keluarga\"" }, "geometry": { "type": "Point", "coordinates": [ 704884.784971241489984, 9311005.576400745660067 ] } },
{ "type": "Feature", "properties": { "id": "way/488153150", "amenity": null, "building": "yes", "name": "Shell Select" }, "geometry": { "type": "Point", "coordinates": [ 704979.328938717255369, 9311560.971906758844852 ] } },
{ "type": "Feature", "properties": { "id": "way/489487302", "amenity": "restaurant", "building": "yes", "name": "Parte Ceker Rempah" }, "geometry": { "type": "Point", "coordinates": [ 705330.092410190729424, 9310913.06465739198029 ] } },
{ "type": "Feature", "properties": { "id": "way/496536209", "amenity": null, "building": "supermarket", "name": "Tip Top Swalayan" }, "geometry": { "type": "Point", "coordinates": [ 708721.488822517218068, 9314239.426014475524426 ] } },
{ "type": "Feature", "properties": { "id": "way/502275355", "amenity": "restaurant", "building": "yes", "name": "Nasi Uduk Kebon Kacang Rawamangun" }, "geometry": { "type": "Point", "coordinates": [ 707988.698405785369687, 9315139.393721897155046 ] } },
{ "type": "Feature", "properties": { "id": "way/504689273", "amenity": "restaurant", "building": "yes", "name": "Asinan Betawi H. Mansyur Kamboja" }, "geometry": { "type": "Point", "coordinates": [ 708567.90285645914264, 9314222.308839969336987 ] } },
{ "type": "Feature", "properties": { "id": "way/509015471", "amenity": null, "building": "supermarket", "name": "Mini Super Jatinegara" }, "geometry": { "type": "Point", "coordinates": [ 706726.651765432558022, 9311835.824437733739614 ] } },
{ "type": "Feature", "properties": { "id": "way/542077221", "amenity": "cafe", "building": "yes", "name": "Kopimana27" }, "geometry": { "type": "Point", "coordinates": [ 704210.800280337454751, 9309981.505639988929033 ] } },
{ "type": "Feature", "properties": { "id": "way/827190703", "amenity": "restaurant", "building": "yes", "name": "Kantin KOPEBI" }, "geometry": { "type": "Point", "coordinates": [ 703838.85705550480634, 9309741.210925795137882 ] } },
{ "type": "Feature", "properties": { "id": "way/1086271143", "amenity": "cafe", "building": "yes", "name": "Pouter Coffee" }, "geometry": { "type": "Point", "coordinates": [ 705472.866441075690091, 9310239.286140002310276 ] } },
{ "type": "Feature", "properties": { "id": "way/1098025880", "amenity": "restaurant", "building": "yes", "name": null }, "geometry": { "type": "Point", "coordinates": [ 705441.741648105438799, 9310682.001246552914381 ] } },
{ "type": "Feature", "properties": { "id": "way/1098029544", "amenity": "restaurant", "building": "yes", "name": "Jonkira" }, "geometry": { "type": "Point", "coordinates": [ 705443.802235679700971, 9310107.363373298197985 ] } },
{ "type": "Feature", "properties": { "id": "way/1098212985", "amenity": "restaurant", "building": "hut", "name": "Seafood 68 Tebet" }, "geometry": { "type": "Point", "coordinates": [ 705478.604890761431307, 9310281.626348219811916 ] } },
{ "type": "Feature", "properties": { "id": "way/1098546295", "amenity": null, "building": "yes", "name": "Alfamart" }, "geometry": { "type": "Point", "coordinates": [ 705474.011218577856198, 9310466.900241913273931 ] } },
{ "type": "Feature", "properties": { "id": "way/1101486280", "amenity": "cafe", "building": "yes", "name": "KOUP!" }, "geometry": { "type": "Point", "coordinates": [ 705441.081274082185701, 9310293.250020489096642 ] } },
{ "type": "Feature", "properties": { "id": "way/1103897926", "amenity": null, "building": "yes", "name": "Gelael" }, "geometry": { "type": "Point", "coordinates": [ 704374.785728222690523, 9309604.080226197838783 ] } },
{ "type": "Feature", "properties": { "id": "way/1156931660", "amenity": "restaurant", "building": "yes", "name": "tebet food street" }, "geometry": { "type": "Point", "coordinates": [ 705316.073141546337865, 9311254.197927704080939 ] } },
{ "type": "Feature", "properties": { "id": "way/1184120073", "amenity": "restaurant", "building": "yes", "name": "Mie Aceh Abue" }, "geometry": { "type": "Point", "coordinates": [ 705458.442792116431519, 9310571.827505528926849 ] } },
{ "type": "Feature", "properties": { "id": "way/1318751389", "amenity": null, "building": "yes", "name": "Shell Select" }, "geometry": { "type": "Point", "coordinates": [ 708228.033728514332324, 9315161.650904243811965 ] } },
{ "type": "Feature", "properties": { "id": "way/1318751390", "amenity": null, "building": "yes", "name": "Shell Select" }, "geometry": { "type": "Point", "coordinates": [ 708996.266331515042111, 9314996.015306098386645 ] } },
{ "type": "Feature", "properties": { "id": "way/1318966805", "amenity": null, "building": "yes", "name": "Shell Select" }, "geometry": { "type": "Point", "coordinates": [ 704337.926583433174528, 9310863.633904870599508 ] } },
{ "type": "Feature", "properties": { "id": "way/1318966809", "amenity": null, "building": "yes", "name": "Shell Select" }, "geometry": { "type": "Point", "coordinates": [ 705290.803786001401022, 9309643.353590823709965 ] } },
{ "type": "Feature", "properties": { "id": "way/1319706052", "amenity": null, "building": "yes", "name": "Shell Select" }, "geometry": { "type": "Point", "coordinates": [ 703245.635057499050163, 9309835.456872440874577 ] } },
{ "type": "Feature", "properties": { "id": "node/1848532134", "amenity": "restaurant", "building": null, "name": "Pizza Hut" }, "geometry": { "type": "Point", "coordinates": [ 708656.810552195413038, 9314434.727081811055541 ] } },
{ "type": "Feature", "properties": { "id": "node/1848546450", "amenity": null, "building": null, "name": "Jessy Bread" }, "geometry": { "type": "Point", "coordinates": [ 708670.961590200313367, 9314504.622290162369609 ] } },
{ "type": "Feature", "properties": { "id": "node/1848548857", "amenity": "restaurant", "building": null, "name": "Ayam Balphuss" }, "geometry": { "type": "Point", "coordinates": [ 708659.599947973154485, 9314170.154094556346536 ] } },
{ "type": "Feature", "properties": { "id": "node/1848548858", "amenity": "restaurant", "building": null, "name": "Riung Tenda" }, "geometry": { "type": "Point", "coordinates": [ 708661.387388807488605, 9314190.332838689908385 ] } },
{ "type": "Feature", "properties": { "id": "node/1848569685", "amenity": "restaurant", "building": null, "name": "Ayam Bakar Gilimanuk" }, "geometry": { "type": "Point", "coordinates": [ 708710.405671189073473, 9314640.048523504287004 ] } },
{ "type": "Feature", "properties": { "id": "node/1848569693", "amenity": "restaurant", "building": null, "name": "Ikan Bakar Banyuwangi" }, "geometry": { "type": "Point", "coordinates": [ 708663.357484145322815, 9314233.859289074316621 ] } },
{ "type": "Feature", "properties": { "id": "node/1868697619", "amenity": null, "building": null, "name": "7-Eleven" }, "geometry": { "type": "Point", "coordinates": [ 704327.132355439011008, 9310382.269950948655605 ] } },
{ "type": "Feature", "properties": { "id": "node/2125250880", "amenity": "restaurant", "building": null, "name": "Mamink Daeng Tata" }, "geometry": { "type": "Point", "coordinates": [ 704855.967727674171329, 9311682.192044176161289 ] } },
{ "type": "Feature", "properties": { "id": "node/2216025046", "amenity": "restaurant", "building": null, "name": "Sederhana" }, "geometry": { "type": "Point", "coordinates": [ 708338.904493664740585, 9314694.579218169674277 ] } },
{ "type": "Feature", "properties": { "id": "node/2565954603", "amenity": "restaurant", "building": null, "name": "Rava House" }, "geometry": { "type": "Point", "coordinates": [ 705225.109424102236517, 9311261.927866725251079 ] } },
{ "type": "Feature", "properties": { "id": "node/2565955884", "amenity": "restaurant", "building": null, "name": "Musketeers" }, "geometry": { "type": "Point", "coordinates": [ 705253.951258267275989, 9311277.211197171360254 ] } },
{ "type": "Feature", "properties": { "id": "node/2565955999", "amenity": "restaurant", "building": null, "name": "Kebab Baba Rafi" }, "geometry": { "type": "Point", "coordinates": [ 705262.978586673736572, 9311253.95317105576396 ] } },
{ "type": "Feature", "properties": { "id": "node/2565956000", "amenity": "restaurant", "building": null, "name": "Bakul TUkul" }, "geometry": { "type": "Point", "coordinates": [ 705223.669823763193563, 9311315.275999058037996 ] } },
{ "type": "Feature", "properties": { "id": "node/2565956001", "amenity": "restaurant", "building": null, "name": "Nasi Bebek" }, "geometry": { "type": "Point", "coordinates": [ 705235.56934049539268, 9311318.795563334599137 ] } },
{ "type": "Feature", "properties": { "id": "node/2566014846", "amenity": "restaurant", "building": null, "name": "Ayam Panggang Rawamangun" }, "geometry": { "type": "Point", "coordinates": [ 705236.619576069759205, 9311409.816863076761365 ] } },
{ "type": "Feature", "properties": { "id": "node/2703703612", "amenity": "cafe", "building": null, "name": "The Cake Storage" }, "geometry": { "type": "Point", "coordinates": [ 705515.610790116596036, 9311471.801710713654757 ] } },
{ "type": "Feature", "properties": { "id": "node/3819243997", "amenity": "restaurant", "building": null, "name": "Ayam Bakar Mas Mono" }, "geometry": { "type": "Point", "coordinates": [ 705311.225245732348412, 9311206.943888558074832 ] } },
{ "type": "Feature", "properties": { "id": "node/3819338022", "amenity": "restaurant", "building": null, "name": "Soto Gebrak!" }, "geometry": { "type": "Point", "coordinates": [ 705036.340577907627448, 9311582.947481710463762 ] } },
{ "type": "Feature", "properties": { "id": "node/3819338024", "amenity": "restaurant", "building": null, "name": "Sop Konro" }, "geometry": { "type": "Point", "coordinates": [ 704875.223726733936928, 9311675.134557589888573 ] } },
{ "type": "Feature", "properties": { "id": "node/3819348104", "amenity": "restaurant", "building": null, "name": "Bakmi Toko TIga" }, "geometry": { "type": "Point", "coordinates": [ 704391.715730788419023, 9309754.526734337210655 ] } },
{ "type": "Feature", "properties": { "id": "node/3819348108", "amenity": null, "building": null, "name": "Indomaret" }, "geometry": { "type": "Point", "coordinates": [ 704417.043303877231665, 9311104.721494611352682 ] } },
{ "type": "Feature", "properties": { "id": "node/4148233914", "amenity": "cafe", "building": null, "name": "Comic Cafe" }, "geometry": { "type": "Point", "coordinates": [ 705247.102588248555548, 9311192.868469199165702 ] } },
{ "type": "Feature", "properties": { "id": "node/4240747874", "amenity": "restaurant", "building": null, "name": "Bebek Kaleyo 6" }, "geometry": { "type": "Point", "coordinates": [ 705432.671504357596859, 9311495.39709846675396 ] } },
{ "type": "Feature", "properties": { "id": "node/4242314139", "amenity": "cafe", "building": null, "name": "Eat Happens Tebet" }, "geometry": { "type": "Point", "coordinates": [ 705267.740062527358532, 9311210.481123097240925 ] } },
{ "type": "Feature", "properties": { "id": "node/4242599193", "amenity": "restaurant", "building": null, "name": "Restoran Pizza Hut - Gatot Subroto Jakarta" }, "geometry": { "type": "Point", "coordinates": [ 703523.268250864348374, 9309746.494444804266095 ] } },
{ "type": "Feature", "properties": { "id": "node/4244115339", "amenity": "cafe", "building": null, "name": "Roti Pisang Bakar (Ropisbak) Ghifari" }, "geometry": { "type": "Point", "coordinates": [ 708714.355048793950118, 9314611.399286234751344 ] } },
{ "type": "Feature", "properties": { "id": "node/4261925215", "amenity": null, "building": null, "name": "Holland Bakery" }, "geometry": { "type": "Point", "coordinates": [ 706690.601169081055559, 9311704.014462260529399 ] } },
{ "type": "Feature", "properties": { "id": "node/4262034421", "amenity": null, "building": null, "name": "Holland Bakery" }, "geometry": { "type": "Point", "coordinates": [ 704435.743455973337404, 9311229.834248963743448 ] } },
{ "type": "Feature", "properties": { "id": "node/4262039041", "amenity": null, "building": null, "name": "Clairmont Tebet" }, "geometry": { "type": "Point", "coordinates": [ 705165.604469378478825, 9311122.469423046335578 ] } },
{ "type": "Feature", "properties": { "id": "node/4262044002", "amenity": null, "building": null, "name": "All Fresh Gatot Subroto" }, "geometry": { "type": "Point", "coordinates": [ 703480.975474795792252, 9309764.64786914922297 ] } },
{ "type": "Feature", "properties": { "id": "node/4262046651", "amenity": null, "building": null, "name": "Holland Bakery" }, "geometry": { "type": "Point", "coordinates": [ 708656.503788900445215, 9314413.824151838198304 ] } },
{ "type": "Feature", "properties": { "id": "node/4262065932", "amenity": null, "building": null, "name": "Dapur Cokelat Tebet" }, "geometry": { "type": "Point", "coordinates": [ 704412.068077306263149, 9310123.508893467485905 ] } },
{ "type": "Feature", "properties": { "id": "node/4430931999", "amenity": "restaurant", "building": null, "name": "Nasi Goreng Mafia" }, "geometry": { "type": "Point", "coordinates": [ 705041.935882563586347, 9311083.197836773470044 ] } },
{ "type": "Feature", "properties": { "id": "node/4542473190", "amenity": null, "building": null, "name": "Indomaret" }, "geometry": { "type": "Point", "coordinates": [ 703526.582878057612106, 9310601.203723259270191 ] } },
{ "type": "Feature", "properties": { "id": "node/4839254422", "amenity": "restaurant", "building": null, "name": null }, "geometry": { "type": "Point", "coordinates": [ 706845.719396260567009, 9311871.913144601508975 ] } },
{ "type": "Feature", "properties": { "id": "node/4839256323", "amenity": null, "building": null, "name": null }, "geometry": { "type": "Point", "coordinates": [ 706870.327062953729182, 9311763.225628234446049 ] } },
{ "type": "Feature", "properties": { "id": "node/4840727821", "amenity": null, "building": null, "name": null }, "geometry": { "type": "Point", "coordinates": [ 706883.167092132847756, 9311707.160089625045657 ] } },
{ "type": "Feature", "properties": { "id": "node/4847207525", "amenity": "restaurant", "building": null, "name": "Bakso Soun & Mie Ayam TTD 47" }, "geometry": { "type": "Point", "coordinates": [ 705440.100606202613562, 9310681.155390486121178 ] } },
{ "type": "Feature", "properties": { "id": "node/4882413932", "amenity": null, "building": null, "name": "Super Indo" }, "geometry": { "type": "Point", "coordinates": [ 709197.816410246887244, 9314963.278089500963688 ] } },
{ "type": "Feature", "properties": { "id": "node/5683660521", "amenity": "restaurant", "building": null, "name": null }, "geometry": { "type": "Point", "coordinates": [ 704362.26500522531569, 9310310.510635113343596 ] } },
{ "type": "Feature", "properties": { "id": "node/5890743785", "amenity": "cafe", "building": null, "name": null }, "geometry": { "type": "Point", "coordinates": [ 704891.948188529349864, 9310079.442492825910449 ] } },
{ "type": "Feature", "properties": { "id": "node/5892880585", "amenity": "cafe", "building": null, "name": null }, "geometry": { "type": "Point", "coordinates": [ 704158.57942925055977, 9309841.590362094342709 ] } },
{ "type": "Feature", "properties": { "id": "node/5892882187", "amenity": "restaurant", "building": null, "name": null }, "geometry": { "type": "Point", "coordinates": [ 704385.57896369881928, 9310103.48340923897922 ] } },
{ "type": "Feature", "properties": { "id": "node/5892882188", "amenity": null, "building": null, "name": "Indomaret" }, "geometry": { "type": "Point", "coordinates": [ 704387.282346524996683, 9310090.548180861398578 ] } },
{ "type": "Feature", "properties": { "id": "node/5892904485", "amenity": "restaurant", "building": null, "name": null }, "geometry": { "type": "Point", "coordinates": [ 704370.039339156472124, 9310169.699388576671481 ] } },
{ "type": "Feature", "properties": { "id": "node/5892904486", "amenity": "restaurant", "building": null, "name": null }, "geometry": { "type": "Point", "coordinates": [ 704347.62513410334941, 9310390.338408041745424 ] } },
{ "type": "Feature", "properties": { "id": "node/5892904487", "amenity": "restaurant", "building": null, "name": null }, "geometry": { "type": "Point", "coordinates": [ 704329.048579640686512, 9310480.664920441806316 ] } },
{ "type": "Feature", "properties": { "id": "node/5892904488", "amenity": "restaurant", "building": null, "name": null }, "geometry": { "type": "Point", "coordinates": [ 704290.534071771195158, 9310481.175821321085095 ] } },
{ "type": "Feature", "properties": { "id": "node/5892912586", "amenity": "cafe", "building": null, "name": null }, "geometry": { "type": "Point", "coordinates": [ 704292.084251254680566, 9310497.174350516870618 ] } },
{ "type": "Feature", "properties": { "id": "node/5892947785", "amenity": null, "building": null, "name": null }, "geometry": { "type": "Point", "coordinates": [ 704348.694806131534278, 9310351.303575249388814 ] } },
{ "type": "Feature", "properties": { "id": "node/6249608692", "amenity": null, "building": null, "name": "Alfamart" }, "geometry": { "type": "Point", "coordinates": [ 704342.241140869446099, 9311065.487664334475994 ] } },
{ "type": "Feature", "properties": { "id": "node/6249668686", "amenity": "restaurant", "building": null, "name": "Bakmi GM" }, "geometry": { "type": "Point", "coordinates": [ 704077.614269725396298, 9309656.98241363465786 ] } },
{ "type": "Feature", "properties": { "id": "node/6249685787", "amenity": null, "building": null, "name": "Indomaret" }, "geometry": { "type": "Point", "coordinates": [ 704084.144290314521641, 9310757.769685477018356 ] } },
{ "type": "Feature", "properties": { "id": "node/6249711364", "amenity": "cafe", "building": null, "name": "Sudut Sedjenak - Tebet" }, "geometry": { "type": "Point", "coordinates": [ 704356.631848498363979, 9311816.174388729035854 ] } },
{ "type": "Feature", "properties": { "id": "node/6249713409", "amenity": null, "building": null, "name": null }, "geometry": { "type": "Point", "coordinates": [ 704437.897597796865739, 9311544.973173530772328 ] } },
{ "type": "Feature", "properties": { "id": "node/6249717196", "amenity": "restaurant", "building": null, "name": null }, "geometry": { "type": "Point", "coordinates": [ 704035.049947608727962, 9310714.309297034516931 ] } },
{ "type": "Feature", "properties": { "id": "node/6249717690", "amenity": "restaurant", "building": null, "name": null }, "geometry": { "type": "Point", "coordinates": [ 704116.031156328972429, 9310653.361605688929558 ] } },
{ "type": "Feature", "properties": { "id": "node/6249961585", "amenity": "cafe", "building": null, "name": "Starbucks" }, "geometry": { "type": "Point", "coordinates": [ 704105.912357256864198, 9310662.079158369451761 ] } },
{ "type": "Feature", "properties": { "id": "node/6276662120", "amenity": "cafe", "building": null, "name": "Studio Coffee" }, "geometry": { "type": "Point", "coordinates": [ 704355.11552517185919, 9311806.67906928062439 ] } },
{ "type": "Feature", "properties": { "id": "node/6385126285", "amenity": null, "building": null, "name": "Holland Bakery" }, "geometry": { "type": "Point", "coordinates": [ 704389.34461790358182, 9309779.033176526427269 ] } },
{ "type": "Feature", "properties": { "id": "node/6395072085", "amenity": "cafe", "building": null, "name": "Starbucks" }, "geometry": { "type": "Point", "coordinates": [ 705032.853432888165116, 9311078.153122307732701 ] } },
{ "type": "Feature", "properties": { "id": "node/6395104486", "amenity": "restaurant", "building": null, "name": null }, "geometry": { "type": "Point", "coordinates": [ 705016.551443522796035, 9311069.052562680095434 ] } },
{ "type": "Feature", "properties": { "id": "node/6397583686", "amenity": "cafe", "building": null, "name": null }, "geometry": { "type": "Point", "coordinates": [ 705344.306168428738602, 9311168.703261645510793 ] } },
{ "type": "Feature", "properties": { "id": "node/6397583687", "amenity": "restaurant", "building": null, "name": null }, "geometry": { "type": "Point", "coordinates": [ 705338.660891024861485, 9311177.991514816880226 ] } },
{ "type": "Feature", "properties": { "id": "node/6397588185", "amenity": null, "building": null, "name": "Alfamidi" }, "geometry": { "type": "Point", "coordinates": [ 705281.086374057922512, 9311169.025027800351381 ] } },
{ "type": "Feature", "properties": { "id": "node/6400014585", "amenity": "cafe", "building": null, "name": "AUTOKOFFIE" }, "geometry": { "type": "Point", "coordinates": [ 705166.171387906302698, 9309838.882417879998684 ] } },
{ "type": "Feature", "properties": { "id": "node/6400014586", "amenity": null, "building": null, "name": "Circle K" }, "geometry": { "type": "Point", "coordinates": [ 704652.050604205112904, 9310078.902366479858756 ] } },
{ "type": "Feature", "properties": { "id": "node/6583340354", "amenity": "restaurant", "building": null, "name": "Rumah Makan Ageng" }, "geometry": { "type": "Point", "coordinates": [ 704915.321527464082465, 9309669.538227828219533 ] } },
{ "type": "Feature", "properties": { "id": "node/6583340355", "amenity": "cafe", "building": null, "name": "Bright Cafe" }, "geometry": { "type": "Point", "coordinates": [ 704945.157466898905113, 9309649.856878204271197 ] } },
{ "type": "Feature", "properties": { "id": "node/6583340356", "amenity": "restaurant", "building": null, "name": "Warung Solo" }, "geometry": { "type": "Point", "coordinates": [ 704783.814431007485837, 9309694.808321338146925 ] } },
{ "type": "Feature", "properties": { "id": "node/6583340357", "amenity": "restaurant", "building": null, "name": "Waroeng Bella-1995" }, "geometry": { "type": "Point", "coordinates": [ 704417.825293330592103, 9309874.658505609259009 ] } },
{ "type": "Feature", "properties": { "id": "node/6583340358", "amenity": "restaurant", "building": null, "name": "Pempek Ibu Sulastri" }, "geometry": { "type": "Point", "coordinates": [ 704498.15724787407089, 9309925.684614801779389 ] } },
{ "type": "Feature", "properties": { "id": "node/6583358886", "amenity": null, "building": null, "name": "Tam's" }, "geometry": { "type": "Point", "coordinates": [ 704760.944087001029402, 9310705.58475492335856 ] } },
{ "type": "Feature", "properties": { "id": "node/7065438285", "amenity": "cafe", "building": null, "name": null }, "geometry": { "type": "Point", "coordinates": [ 704175.637265663594007, 9311728.270802592858672 ] } },
{ "type": "Feature", "properties": { "id": "node/7701867985", "amenity": "restaurant", "building": null, "name": null }, "geometry": { "type": "Point", "coordinates": [ 705205.031311536673456, 9311441.382855819538236 ] } },
{ "type": "Feature", "properties": { "id": "node/9227203690", "amenity": "cafe", "building": null, "name": "Sajiwa Coffee & Tea" }, "geometry": { "type": "Point", "coordinates": [ 702767.171010810066946, 9313428.925721041858196 ] } },
{ "type": "Feature", "properties": { "id": "node/9678833691", "amenity": "cafe", "building": null, "name": "Kopi Kotak - Tebet Barat" }, "geometry": { "type": "Point", "coordinates": [ 704587.327370146638714, 9310032.013389399275184 ] } },
{ "type": "Feature", "properties": { "id": "node/9679174696", "amenity": "restaurant", "building": null, "name": "Restoran Pagi Sore Tebet" }, "geometry": { "type": "Point", "coordinates": [ 704364.734576391871087, 9311601.137844430282712 ] } },
{ "type": "Feature", "properties": { "id": "node/9679280634", "amenity": "cafe", "building": null, "name": "Kopi Bajawa Flores - Tebet Timur" }, "geometry": { "type": "Point", "coordinates": [ 705381.012784656486474, 9310757.85537201538682 ] } },
{ "type": "Feature", "properties": { "id": "node/9679355269", "amenity": null, "building": null, "name": "Lawson" }, "geometry": { "type": "Point", "coordinates": [ 705527.800358773907647, 9311469.657407883554697 ] } },
{ "type": "Feature", "properties": { "id": "node/9679378519", "amenity": "cafe", "building": null, "name": "Warunk Upnormal - Tebet" }, "geometry": { "type": "Point", "coordinates": [ 705521.262347915326245, 9311470.587336452677846 ] } },
{ "type": "Feature", "properties": { "id": "node/9729352902", "amenity": "cafe", "building": null, "name": "Kopi Nako - Tebet" }, "geometry": { "type": "Point", "coordinates": [ 704955.957033936050721, 9309683.740334203466773 ] } },
{ "type": "Feature", "properties": { "id": "node/9731816306", "amenity": "cafe", "building": "yes", "name": "Starbucks" }, "geometry": { "type": "Point", "coordinates": [ 703751.512910317978822, 9309726.065405771136284 ] } },
{ "type": "Feature", "properties": { "id": "node/9751219903", "amenity": "restaurant", "building": null, "name": "Sate Taichan Goreng Tebet" }, "geometry": { "type": "Point", "coordinates": [ 705306.975657540140674, 9311175.614362446591258 ] } },
{ "type": "Feature", "properties": { "id": "node/9810495226", "amenity": "cafe", "building": null, "name": "Starbucks" }, "geometry": { "type": "Point", "coordinates": [ 704487.351199638447724, 9309587.017757218331099 ] } },
{ "type": "Feature", "properties": { "id": "node/9810495229", "amenity": "restaurant", "building": null, "name": "Raa Cha" }, "geometry": { "type": "Point", "coordinates": [ 704464.983383136685006, 9309583.888812474906445 ] } },
{ "type": "Feature", "properties": { "id": "node/9932760489", "amenity": null, "building": null, "name": "Alfamidi" }, "geometry": { "type": "Point", "coordinates": [ 704638.843275277991779, 9311356.502384083345532 ] } },
{ "type": "Feature", "properties": { "id": "node/9932775137", "amenity": null, "building": null, "name": "Indomaret" }, "geometry": { "type": "Point", "coordinates": [ 704833.898219746304676, 9310978.336876211687922 ] } },
{ "type": "Feature", "properties": { "id": "node/9948539378", "amenity": null, "building": null, "name": "Indomaret" }, "geometry": { "type": "Point", "coordinates": [ 708709.366417163284495, 9313532.87972854077816 ] } },
{ "type": "Feature", "properties": { "id": "node/10048902218", "amenity": "restaurant", "building": null, "name": "Mie Aceh Jaly-jaly" }, "geometry": { "type": "Point", "coordinates": [ 704161.619653868256137, 9310033.41696242056787 ] } },
{ "type": "Feature", "properties": { "id": "node/10052627717", "amenity": "restaurant", "building": null, "name": "Tamanteras" }, "geometry": { "type": "Point", "coordinates": [ 705087.713524159509689, 9310201.322822848334908 ] } },
{ "type": "Feature", "properties": { "id": "node/10052810117", "amenity": "restaurant", "building": null, "name": "JONKIRA" }, "geometry": { "type": "Point", "coordinates": [ 705445.909203186398372, 9310105.376181900501251 ] } },
{ "type": "Feature", "properties": { "id": "node/10052812517", "amenity": "restaurant", "building": null, "name": "Fish Streat" }, "geometry": { "type": "Point", "coordinates": [ 705446.6175764168147, 9310108.525832405313849 ] } },
{ "type": "Feature", "properties": { "id": "node/10053941317", "amenity": "cafe", "building": null, "name": "Selawaktu Coffee" }, "geometry": { "type": "Point", "coordinates": [ 705470.479740356560796, 9310400.673370597884059 ] } },
{ "type": "Feature", "properties": { "id": "node/10058647611", "amenity": "restaurant", "building": null, "name": "Sajian Selasar" }, "geometry": { "type": "Point", "coordinates": [ 705457.177158154081553, 9310517.283250765874982 ] } },
{ "type": "Feature", "properties": { "id": "node/10058647612", "amenity": "restaurant", "building": null, "name": "Soto Mat Tjangkir Tebet" }, "geometry": { "type": "Point", "coordinates": [ 705457.051003123051487, 9310519.174982380121946 ] } },
{ "type": "Feature", "properties": { "id": "node/10101656687", "amenity": "restaurant", "building": null, "name": "Solaria" }, "geometry": { "type": "Point", "coordinates": [ 704512.533553418586962, 9309622.631420912221074 ] } },
{ "type": "Feature", "properties": { "id": "node/10101656688", "amenity": "restaurant", "building": null, "name": "HEMA" }, "geometry": { "type": "Point", "coordinates": [ 704475.182950510643423, 9309595.11221438460052 ] } },
{ "type": "Feature", "properties": { "id": "node/10101656689", "amenity": "restaurant", "building": null, "name": "HEMA" }, "geometry": { "type": "Point", "coordinates": [ 704485.609656422282569, 9309607.982774842530489 ] } },
{ "type": "Feature", "properties": { "id": "node/10101656694", "amenity": null, "building": null, "name": "Indomaret" }, "geometry": { "type": "Point", "coordinates": [ 704483.29031905636657, 9309621.993010897189379 ] } },
{ "type": "Feature", "properties": { "id": "node/10101656695", "amenity": "restaurant", "building": null, "name": "Steak 21" }, "geometry": { "type": "Point", "coordinates": [ 704448.86526596697513, 9309582.894654184579849 ] } },
{ "type": "Feature", "properties": { "id": "node/10101656696", "amenity": "cafe", "building": null, "name": "The Coffee Bean & Tea Leaf" }, "geometry": { "type": "Point", "coordinates": [ 704430.300240676035173, 9309581.632573118433356 ] } },
{ "type": "Feature", "properties": { "id": "node/10101656709", "amenity": null, "building": null, "name": "Super Indo" }, "geometry": { "type": "Point", "coordinates": [ 704094.774998803157359, 9309642.820708764716983 ] } },
{ "type": "Feature", "properties": { "id": "node/10102658576", "amenity": "cafe", "building": null, "name": "Warung Kopi Bang Ari" }, "geometry": { "type": "Point", "coordinates": [ 704384.537388255004771, 9310245.266493108123541 ] } },
{ "type": "Feature", "properties": { "id": "node/10185548917", "amenity": "cafe", "building": null, "name": "Janji Jiwa" }, "geometry": { "type": "Point", "coordinates": [ 706625.242066996404901, 9312349.078538917005062 ] } },
{ "type": "Feature", "properties": { "id": "node/10668885080", "amenity": "restaurant", "building": null, "name": "KAKI LIMA MATRAMAN" }, "geometry": { "type": "Point", "coordinates": [ 706128.592190100811422, 9312757.380816251039505 ] } },
{ "type": "Feature", "properties": { "id": "node/10758109838", "amenity": "cafe", "building": null, "name": "Mixue Tebet" }, "geometry": { "type": "Point", "coordinates": [ 705250.173749523237348, 9311263.67579110711813 ] } },
{ "type": "Feature", "properties": { "id": "node/10758128391", "amenity": "restaurant", "building": null, "name": "Ropang OTW Tebet" }, "geometry": { "type": "Point", "coordinates": [ 705244.937035028939135, 9311275.849290108308196 ] } },
{ "type": "Feature", "properties": { "id": "node/10758135234", "amenity": "restaurant", "building": null, "name": "WS Waroeng Steak & Shake Tebet" }, "geometry": { "type": "Point", "coordinates": [ 705270.948548626503907, 9311191.225192006677389 ] } },
{ "type": "Feature", "properties": { "id": "node/10758741476", "amenity": null, "building": null, "name": "alfamidi tebet raya" }, "geometry": { "type": "Point", "coordinates": [ 705269.194863377837464, 9311240.216745750978589 ] } },
{ "type": "Feature", "properties": { "id": "node/10831630845", "amenity": "cafe", "building": null, "name": "Chatime" }, "geometry": { "type": "Point", "coordinates": [ 705295.482838322874159, 9309639.466054130345583 ] } },
{ "type": "Feature", "properties": { "id": "node/10892560046", "amenity": "cafe", "building": null, "name": "Haus!" }, "geometry": { "type": "Point", "coordinates": [ 705360.694128828938119, 9311249.451116701588035 ] } },
{ "type": "Feature", "properties": { "id": "node/11690216697", "amenity": "cafe", "building": null, "name": "TAMANI KOTA KASABLANKA" }, "geometry": { "type": "Point", "coordinates": [ 703842.451148424763232, 9311752.947301097214222 ] } },
{ "type": "Feature", "properties": { "id": "node/12032748389", "amenity": null, "building": null, "name": "FamilyMart" }, "geometry": { "type": "Point", "coordinates": [ 705573.914891961729154, 9311461.520815785974264 ] } },
{ "type": "Feature", "properties": { "id": "node/12146079417", "amenity": "restaurant", "building": null, "name": "Nominomi delight | Tebet" }, "geometry": { "type": "Point", "coordinates": [ 704895.396111787762493, 9310062.19869546033442 ] } },
{ "type": "Feature", "properties": { "id": "node/12811324566", "amenity": "restaurant", "building": null, "name": "Riung Tenda" }, "geometry": { "type": "Point", "coordinates": [ 708662.382235596422106, 9314189.953249188140035 ] } }
]
}
