{
"type": "FeatureCollection",
"generator": "overpass-turbo",
"copyright": "The data included in this document is from www.openstreetmap.org. The data is made available under ODbL.",
"timestamp": "2025-08-06T07:39:15Z",
"name": "Sumber_Makanan",
"features": [
{ "type": "Feature", "id": "way/117314955", "properties": { "@id": "way/117314955", "access:roof": "no", "addr:city": "DKI Jakarta", "addr:full": "Jalan Basuki Rahmat", "backup_generator": "yes", "brand": "Super Indo", "brand:wikidata": "Q12518060", "building": "supermarket", "building:condition": "good", "building:levels": "2", "building:roof": "tin", "building:structure": "steel_frame", "building:walls": "concrete", "capacity:persons": ">500", "name": "Super Indo", "shop": "supermarket", "source": "HOT_InAWARESurvey_2017", "@geometry": "center" }, "geometry": { "type": "Point", "coordinates": [ 106.8831531, -6.2273649 ] } },
{ "type": "Feature", "id": "way/120494411", "properties": { "@id": "way/120494411", "brand": "Alfamart", "brand:wikidata": "Q23745600", "brand:wikipedia": "en:Alfamart", "building": "yes", "building:levels": "1", "building:roof": "tile", "building:structure": "plastered", "building:use": "shop", "building:walls": "brick", "name": "Alfamart", "shop": "convenience", "@geometry": "center" }, "geometry": { "type": "Point", "coordinates": [ 106.8700108, -6.2319165 ] } },
{ "type": "Feature", "id": "way/120494417", "properties": { "@id": "way/120494417", "brand": "Indomaret", "brand:wikidata": "Q4262825", "brand:wikipedia": "en:Indomaret", "building": "yes", "building:levels": "2", "building:roof": "concrete", "building:structure": "reinforced_masonry", "building:use": "shop", "building:walls": "brick", "name": "Indomaret", "shop": "convenience", "@geometry": "center" }, "geometry": { "type": "Point", "coordinates": [ 106.8699561, -6.2315045 ] } },
{ "type": "Feature", "id": "way/155938264", "properties": { "@id": "way/155938264", "access:roof": "no", "addr:full": "Jalan Matraman Raya", "amenity": "restaurant", "branch": "Matraman", "brand": "Pizza Hut", "brand:wikidata": "Q191615", "building": "retail", "building:levels": "1", "building:roof": "tile", "building:structure": "confined_masonry", "building:walls": "brick", "capacity": "100", "cuisine": "pizza", "name": "Pizza Hut", "@geometry": "center" }, "geometry": { "type": "Point", "coordinates": [ 106.8562643, -6.2011874 ] } },
{ "type": "Feature", "id": "way/155938269", "properties": { "@id": "way/155938269", "access:roof": "no", "addr:full": "Jl. Matraman Raya", "amenity": "restaurant", "building": "yes", "building:levels": "2", "building:roof": "tile", "building:structure": "reinforced_masonry", "building:walls": "brick", "capacity:persons": "1000", "name": "RM. Handayani", "@geometry": "center" }, "geometry": { "type": "Point", "coordinates": [ 106.8568734, -6.201782 ] } },
{ "type": "Feature", "id": "way/155941466", "properties": { "@id": "way/155941466", "building": "retail", "name": "ceriamart", "shop": "convenience", "@geometry": "center" }, "geometry": { "type": "Point", "coordinates": [ 106.8615252, -6.205124 ] } },
{ "type": "Feature", "id": "way/155941468", "properties": { "@id": "way/155941468", "building": "retail", "name": "ceriamart", "shop": "convenience", "@geometry": "center" }, "geometry": { "type": "Point", "coordinates": [ 106.8626742, -6.2091115 ] } },
{ "type": "Feature", "id": "way/155945136", "properties": { "@id": "way/155945136", "addr:full": "Jalan Matraman Raya", "brand": "Alfamart", "brand:wikidata": "Q23745600", "building": "retail", "name": "Alfamart", "shop": "convenience", "@geometry": "center" }, "geometry": { "type": "Point", "coordinates": [ 106.8605084, -6.2107553 ] } },
{ "type": "Feature", "id": "way/188727003", "properties": { "@id": "way/188727003", "amenity": "restaurant", "building": "yes", "cuisine": "padang", "name": "Sederhana", "@geometry": "center" }, "geometry": { "type": "Point", "coordinates": [ 106.8425347, -6.2423955 ] } },
{ "type": "Feature", "id": "way/250082884", "properties": { "@id": "way/250082884", "addr:city": "Jakarta Selatan", "addr:housename": "Tebet Utara Dalam", "addr:street": "Tebet Utara Dalam", "brand": "Circle K", "brand:wikidata": "Q3268010", "building": "yes", "name": "Circle K", "shop": "convenience", "@geometry": "center" }, "geometry": { "type": "Point", "coordinates": [ 106.8550415, -6.2261342 ] } },
{ "type": "Feature", "id": "way/251109083", "properties": { "@id": "way/251109083", "amenity": "restaurant", "building": "yes", "cuisine": "regional", "name": "Bebek Kaleyo", "@geometry": "center" }, "geometry": { "type": "Point", "coordinates": [ 106.8568854, -6.2257555 ] } },
{ "type": "Feature", "id": "way/274478943", "properties": { "@id": "way/274478943", "amenity": "restaurant", "building": "yes", "@geometry": "center" }, "geometry": { "type": "Point", "coordinates": [ 106.8567105, -6.2257216 ] } },
{ "type": "Feature", "id": "way/283081572", "properties": { "@id": "way/283081572", "access:roof": "no", "addr:full": "Jalan Matraman Raya", "amenity": "restaurant", "building": "restaurant", "building:levels": "1", "building:roof": "concrete", "building:structure": "confined_masonry", "building:walls": "brick", "capacity": "200", "name": "Ayam Goreng Aroma", "@geometry": "center" }, "geometry": { "type": "Point", "coordinates": [ 106.8545564, -6.2006984 ] } },
{ "type": "Feature", "id": "way/283081602", "properties": { "@id": "way/283081602", "access:roof": "no", "addr:full": "Jalan Matraman Raya", "amenity": "restaurant", "building": "restaurant", "building:levels": "1", "building:roof": "concrete", "building:structure": "confined_masonry", "building:walls": "brick", "capacity": "200", "name": "Dapur Solo", "@geometry": "center" }, "geometry": { "type": "Point", "coordinates": [ 106.8546543, -6.2007818 ] } },
{ "type": "Feature", "id": "way/283556256", "properties": { "@id": "way/283556256", "branch": "Terminal Bus Manggarai", "brand": "Indomaret", "brand:wikidata": "Q4262825", "building": "yes", "name": "Indomaret", "shop": "convenience", "@geometry": "center" }, "geometry": { "type": "Point", "coordinates": [ 106.8477769, -6.2093165 ] } },
{ "type": "Feature", "id": "way/363840516", "properties": { "@id": "way/363840516", "amenity": "restaurant", "building": "retail", "building:levels": "1", "building:roof": "tin", "building:structure": "plastered", "building:walls": "brick", "@geometry": "center" }, "geometry": { "type": "Point", "coordinates": [ 106.8701362, -6.1930611 ] } },
{ "type": "Feature", "id": "way/363842573", "properties": { "@id": "way/363842573", "access:roof": "yes", "building": "yes", "building:levels": "2", "building:roof": "concrete", "building:structure": "reinforced_masonry", "building:walls": "brick", "capacity:persons": "100", "name": "Indomaret", "shop": "convenience", "@geometry": "center" }, "geometry": { "type": "Point", "coordinates": [ 106.868497, -6.1940816 ] } },
{ "type": "Feature", "id": "way/451992613", "properties": { "@id": "way/451992613", "addr:full": "Jalan Matraman Raya", "amenity": "restaurant", "building": "restaurant", "name": "Rumah Makan Padang Viscadha", "@geometry": "center" }, "geometry": { "type": "Point", "coordinates": [ 106.8586589, -6.2075022 ] } },
{ "type": "Feature", "id": "way/453889304", "properties": { "@id": "way/453889304", "access:roof": "yes", "addr:full": "Jalan Matraman Raya", "branch": "Matraman Raya 2", "brand": "Alfamart", "brand:wikidata": "Q23745600", "building": "retail", "building:levels": "1", "building:roof": "concrete", "building:structure": "confined_masonry", "building:walls": "brick", "capacity": "100", "name": "Alfamart", "shop": "convenience", "@geometry": "center" }, "geometry": { "type": "Point", "coordinates": [ 106.8585398, -6.2057825 ] } },
{ "type": "Feature", "id": "way/454010127", "properties": { "@id": "way/454010127", "access:roof": "no", "addr:full": "Jalan Matraman Raya", "amenity": "restaurant", "building": "restaurant", "building:levels": "2", "building:roof": "tile", "building:structure": "confined_masonry", "building:walls": "brick", "capacity": "300", "name": "Abuba Steak", "@geometry": "center" }, "geometry": { "type": "Point", "coordinates": [ 106.8548208, -6.2010006 ] } },
{ "type": "Feature", "id": "way/454010139", "properties": { "@id": "way/454010139", "access:roof": "no", "addr:full": "Jalan Matraman Raya", "amenity": "restaurant", "building": "yes", "building:levels": "1", "building:roof": "tile", "building:structure": "confined_masonry", "building:walls": "brick", "capacity": "100", "name": "Rumah Makan Sederhana", "@geometry": "center" }, "geometry": { "type": "Point", "coordinates": [ 106.8571888, -6.2022967 ] } },
{ "type": "Feature", "id": "way/454014919", "properties": { "@id": "way/454014919", "access:roof": "no", "addr:full": "Jalan Matraman Raya", "branch": "Matraman", "brand": "Alfamidi", "brand:wikidata": "Q12471462", "building": "retail", "building:levels": "1", "building:roof": "tile", "building:structure": "confined_masonry", "building:walls": "brick", "capacity": "200", "name": "Alfamidi", "shop": "convenience", "@geometry": "center" }, "geometry": { "type": "Point", "coordinates": [ 106.8560566, -6.2009558 ] } },
{ "type": "Feature", "id": "way/454014920", "properties": { "@id": "way/454014920", "access:roof": "no", "addr:full": "Jalan Matraman Raya", "brand": "Alfamart", "brand:wikidata": "Q23745600", "building": "retail", "building:levels": "1", "building:roof": "tile", "building:structure": "confined_masonry", "building:walls": "brick", "capacity": "50", "name": "Alfamart", "shop": "convenience", "@geometry": "center" }, "geometry": { "type": "Point", "coordinates": [ 106.8544529, -6.199491 ] } },
{ "type": "Feature", "id": "way/456686095", "properties": { "@id": "way/456686095", "access:roof": "no", "addr:full": "Jalan Matraman Raya", "amenity": "restaurant", "building": "restaurant", "building:levels": "1", "building:roof": "tile", "building:structure": "reinforced_masonry", "building:walls": "brick", "capacity": "100", "name": "Soto Pak Min Klaten", "@geometry": "center" }, "geometry": { "type": "Point", "coordinates": [ 106.8573523, -6.2045036 ] } },
{ "type": "Feature", "id": "way/456699557", "properties": { "@id": "way/456699557", "access:roof": "no", "addr:full": "Jalan Matraman Raya", "building": "bakery", "building:levels": "1", "building:roof": "tin", "building:structure": "confined_masonry", "building:walls": "brick", "capacity": "50", "name": "Toko Roti Tegal", "shop": "bakery", "@geometry": "center" }, "geometry": { "type": "Point", "coordinates": [ 106.8571223, -6.2040712 ] } },
{ "type": "Feature", "id": "way/456705233", "properties": { "@id": "way/456705233", "access:roof": "no", "addr:full": "Jalan Matraman Raya", "brand": "Alfamart", "brand:wikidata": "Q23745600", "building": "retail", "building:levels": "1", "building:roof": "tin", "building:structure": "confined_masonry", "building:walls": "brick", "capacity": "50", "name": "Alfamart", "shop": "convenience", "@geometry": "center" }, "geometry": { "type": "Point", "coordinates": [ 106.857029, -6.2035563 ] } },
{ "type": "Feature", "id": "way/456705237", "properties": { "@id": "way/456705237", "access:roof": "no", "addr:full": "Jalan Matraman Raya", "brand": "Alfamart", "brand:wikidata": "Q23745600", "building": "retail", "building:levels": "1", "building:roof": "tin", "building:structure": "confined_masonry", "building:walls": "brick", "capacity": "50", "name": "Alfamart", "opening_hours": "24/7", "shop": "convenience", "@geometry": "center" }, "geometry": { "type": "Point", "coordinates": [ 106.8572395, -6.2041368 ] } },
{ "type": "Feature", "id": "way/456706761", "properties": { "@id": "way/456706761", "access:roof": "no", "addr:full": "Jalan Matraman Raya", "amenity": "restaurant", "building": "restaurant", "building:levels": "1", "building:roof": "tile", "building:structure": "confined_masonry", "building:walls": "brick", "capacity": "50", "name": "Bakso Bang Eric", "@geometry": "center" }, "geometry": { "type": "Point", "coordinates": [ 106.8570845, -6.2036984 ] } },
{ "type": "Feature", "id": "way/456706762", "properties": { "@id": "way/456706762", "access:roof": "no", "addr:full": "Jalan Matraman Raya", "amenity": "restaurant", "building": "restaurant", "building:levels": "1", "building:roof": "tin", "building:structure": "confined_masonry", "building:walls": "brick", "capacity": "30", "name": "Rumah Makan Gudeng Bu Darmo/Yati", "@geometry": "center" }, "geometry": { "type": "Point", "coordinates": [ 106.8570675, -6.2037965 ] } },
{ "type": "Feature", "id": "way/481718037", "properties": { "@id": "way/481718037", "brand": "Indomaret", "brand:wikidata": "Q4262825", "brand:wikipedia": "en:Indomaret", "building": "yes", "name": "Indomaret", "operator": "Indomaret", "shop": "convenience", "@geometry": "center" }, "geometry": { "type": "Point", "coordinates": [ 106.8568019, -6.2363999 ] } },
{ "type": "Feature", "id": "way/481726494", "properties": { "@id": "way/481726494", "addr:housenumber": "117", "addr:postcode": "12820", "addr:street": "Tebet Timur Dalam Raya", "amenity": "restaurant", "building": "yes", "building:levels": "1", "contact:instagram": "bebekmalio", "cuisine": "indonesian", "level": "1", "name": "Bebek Malio", "name:en": "Bebek Malio", "opening_hours": "Mo-Su 10:00-22:00", "phone": "+62 813 3636 0898", "@geometry": "center" }, "geometry": { "type": "Point", "coordinates": [ 106.8570157, -6.2377453 ] } },
{ "type": "Feature", "id": "way/481928015", "properties": { "@id": "way/481928015", "addr:full": "Jalan Tebet Barat Raya", "amenity": "cafe", "building": "yes", "name": "Rote", "@geometry": "center" }, "geometry": { "type": "Point", "coordinates": [ 106.8520274, -6.2377842 ] } },
{ "type": "Feature", "id": "way/481950282", "properties": { "@id": "way/481950282", "amenity": "restaurant", "building": "yes", "name": "Warteg Bu Epi", "@geometry": "center" }, "geometry": { "type": "Point", "coordinates": [ 106.8713616, -6.2154723 ] } },
{ "type": "Feature", "id": "way/481975212", "properties": { "@id": "way/481975212", "amenity": "restaurant", "building": "yes", "name": "Mie Abi", "@geometry": "center" }, "geometry": { "type": "Point", "coordinates": [ 106.8551464, -6.2340041 ] } },
{ "type": "Feature", "id": "way/482095238", "properties": { "@id": "way/482095238", "amenity": "restaurant", "building": "yes", "name": "Sambal Hejo Sambal Dadak", "@geometry": "center" }, "geometry": { "type": "Point", "coordinates": [ 106.8561166, -6.2289882 ] } },
{ "type": "Feature", "id": "way/482101412", "properties": { "@id": "way/482101412", "amenity": "cafe", "building": "yes", "internet_access": "no", "name": "Warung Pancong", "opening_hours": "10.00 - 00.00", "@geometry": "center" }, "geometry": { "type": "Point", "coordinates": [ 106.8626, -6.2328391 ] } },
{ "type": "Feature", "id": "way/482127878", "properties": { "@id": "way/482127878", "amenity": "restaurant", "building": "yes", "name": "Sogogi Shabu Tebet", "@geometry": "center" }, "geometry": { "type": "Point", "coordinates": [ 106.8562786, -6.2283402 ] } },
{ "type": "Feature", "id": "way/482127889", "properties": { "@id": "way/482127889", "amenity": "restaurant", "building": "yes", "name": "Smarapura", "@geometry": "center" }, "geometry": { "type": "Point", "coordinates": [ 106.8565468, -6.2288927 ] } },
{ "type": "Feature", "id": "way/482141483", "properties": { "@id": "way/482141483", "amenity": "restaurant", "building": "yes", "name": "Penang Bistro - Gatot Subroto", "@geometry": "center" }, "geometry": { "type": "Point", "coordinates": [ 106.8396875, -6.2417159 ] } },
{ "type": "Feature", "id": "way/482141485", "properties": { "@id": "way/482141485", "amenity": "restaurant", "building": "yes", "name": "Holywings Club V Gatsu - Menteng Dalam", "@geometry": "center" }, "geometry": { "type": "Point", "coordinates": [ 106.8398807, -6.2417231 ] } },
{ "type": "Feature", "id": "way/482158693", "properties": { "@id": "way/482158693", "building": "yes", "name": "Larisia Bakery & Cake", "shop": "bakery", "@geometry": "center" }, "geometry": { "type": "Point", "coordinates": [ 106.856892, -6.238298 ] } },
{ "type": "Feature", "id": "way/482158736", "properties": { "@id": "way/482158736", "amenity": "restaurant", "building": "yes", "name:en": "Seeng Nini", "@geometry": "center" }, "geometry": { "type": "Point", "coordinates": [ 106.8566163, -6.2377529 ] } },
{ "type": "Feature", "id": "way/482181017", "properties": { "@id": "way/482181017", "amenity": "restaurant", "building": "yes", "name": "Pie Pisang", "@geometry": "center" }, "geometry": { "type": "Point", "coordinates": [ 106.8557932, -6.2310047 ] } },
{ "type": "Feature", "id": "way/482186168", "properties": { "@id": "way/482186168", "amenity": "restaurant", "building": "yes", "name": "Bakmi Jowo Jape Methe", "@geometry": "center" }, "geometry": { "type": "Point", "coordinates": [ 106.8570936, -6.2337067 ] } },
{ "type": "Feature", "id": "way/482186170", "properties": { "@id": "way/482186170", "addr:city": "Jakarta Selatan", "addr:postcode": "12820", "addr:street": "Jalan Tebet Timur Dalam Raya", "amenity": "restaurant", "building": "yes", "cuisine": "indonesian", "diet:halal": "yes", "name": "Warteg Nonstop", "opening_hours": "24/7", "@geometry": "center" }, "geometry": { "type": "Point", "coordinates": [ 106.8569955, -6.2340189 ] } },
{ "type": "Feature", "id": "way/482186202", "properties": { "@id": "way/482186202", "amenity": "restaurant", "building": "yes", "name": "Rumah Makan Minang Sakato", "@geometry": "center" }, "geometry": { "type": "Point", "coordinates": [ 106.8567222, -6.2339275 ] } },
{ "type": "Feature", "id": "way/482194043", "properties": { "@id": "way/482194043", "amenity": "cafe", "building": "yes", "name": "Kopilojik Tebet", "@geometry": "center" }, "geometry": { "type": "Point", "coordinates": [ 106.8549689, -6.2320426 ] } },
{ "type": "Feature", "id": "way/482347577", "properties": { "@id": "way/482347577", "amenity": "cafe", "building": "yes", "cuisine": "bubble_tea", "name": "Mixue", "@geometry": "center" }, "geometry": { "type": "Point", "coordinates": [ 106.8553567, -6.2281687 ] } },
{ "type": "Feature", "id": "way/482347701", "properties": { "@id": "way/482347701", "addr:postcode": "12820", "addr:province": "dki jakarta", "addr:street": "Jalan Tebet Raya", "amenity": "restaurant", "building": "yes", "cuisine": "indonesian;noodles", "diet:halal": "yes", "name": "Mie Gacoan", "opening_hours": "24/7", "@geometry": "center" }, "geometry": { "type": "Point", "coordinates": [ 106.8537664, -6.2289986 ] } },
{ "type": "Feature", "id": "way/482353610", "properties": { "@id": "way/482353610", "amenity": "cafe", "building": "yes", "name": "Rocelli Coffee", "@geometry": "center" }, "geometry": { "type": "Point", "coordinates": [ 106.8582115, -6.229348 ] } },
{ "type": "Feature", "id": "way/482365594", "properties": { "@id": "way/482365594", "addr:city": "Jakarta Selatan", "addr:housenumber": "47", "addr:postcode": "12820", "addr:street": "Jalan Tebet Timur Dalam Raya", "brand": "Alfamidi", "brand:wikidata": "Q12471462", "building": "yes", "building:levels": "1", "name": "Alfamidi", "shop": "convenience", "@geometry": "center" }, "geometry": { "type": "Point", "coordinates": [ 106.8570811, -6.2332381 ] } },
{ "type": "Feature", "id": "way/482365601", "properties": { "@id": "way/482365601", "amenity": "restaurant", "building": "yes", "@geometry": "center" }, "geometry": { "type": "Point", "coordinates": [ 106.8564875, -6.2328456 ] } },
{ "type": "Feature", "id": "way/482365631", "properties": { "@id": "way/482365631", "amenity": "cafe", "building": "yes", "name": "Kopi Buntu", "@geometry": "center" }, "geometry": { "type": "Point", "coordinates": [ 106.8558122, -6.231779 ] } },
{ "type": "Feature", "id": "way/482365647", "properties": { "@id": "way/482365647", "addr:housenumber": "41", "addr:street": "Jalan Tebet Timur Dalam", "amenity": "restaurant", "building": "yes", "contact:instagram": "bakmiberdikari", "cuisine": "noodles;noodle", "name": "Bakmi Berdikari", "opening_hours": "Mo-Su 10:00-21:00", "outdoor_seating": "no", "phone": "+62 218-3792365", "short_name": "Bakmi BDK", "start_date": "1978-07-19", "takeaway": "yes", "website": "https://www.bakmiberdikari.com", "@geometry": "center" }, "geometry": { "type": "Point", "coordinates": [ 106.8566626, -6.2324702 ] } },
{ "type": "Feature", "id": "way/482370783", "properties": { "@id": "way/482370783", "amenity": "restaurant", "building": "yes", "name": "Pondok Nasi Mumtaz", "@geometry": "center" }, "geometry": { "type": "Point", "coordinates": [ 106.8697208, -6.2222721 ] } },
{ "type": "Feature", "id": "way/482377730", "properties": { "@id": "way/482377730", "amenity": "restaurant", "building": "yes", "name": "Bakso Kemon - Tebet", "@geometry": "center" }, "geometry": { "type": "Point", "coordinates": [ 106.8551073, -6.2272926 ] } },
{ "type": "Feature", "id": "way/482402881", "properties": { "@id": "way/482402881", "addr:full": "Jalan Tebet Utara I", "brand": "Circle K", "brand:wikidata": "Q3268010", "building": "yes", "name": "Circle K", "shop": "convenience", "@geometry": "center" }, "geometry": { "type": "Point", "coordinates": [ 106.8524362, -6.2258178 ] } },
{ "type": "Feature", "id": "way/482420864", "properties": { "@id": "way/482420864", "brand": "Indomaret", "brand:wikidata": "Q4262825", "brand:wikipedia": "en:Indomaret", "building": "yes", "name": "Indomaret", "opening_hours": "Mo-Su 07:00-22:00", "operator": "Indomaret", "shop": "convenience", "@geometry": "center" }, "geometry": { "type": "Point", "coordinates": [ 106.8457408, -6.2392064 ] } },
{ "type": "Feature", "id": "way/483342339", "properties": { "@id": "way/483342339", "amenity": "cafe", "building": "yes", "name": "Kopibrug - Tebet Barat", "@geometry": "center" }, "geometry": { "type": "Point", "coordinates": [ 106.8463932, -6.2336719 ] } },
{ "type": "Feature", "id": "way/483342695", "properties": { "@id": "way/483342695", "addr:full": "Jalan Tebet Barat Dalam", "amenity": "restaurant", "building": "yes", "name": "Pondok Mutiara 68", "@geometry": "center" }, "geometry": { "type": "Point", "coordinates": [ 106.8466194, -6.2360781 ] } },
{ "type": "Feature", "id": "way/483346204", "properties": { "@id": "way/483346204", "amenity": "cafe", "branch": "Tebet Barat", "building": "yes", "name": "Unclebrew X Caesan Kitchen & Tea", "@geometry": "center" }, "geometry": { "type": "Point", "coordinates": [ 106.8463217, -6.2328093 ] } },
{ "type": "Feature", "id": "way/483406651", "properties": { "@id": "way/483406651", "amenity": "restaurant", "building": "yes", "name": "Shamrock Kitchen And Bar", "@geometry": "center" }, "geometry": { "type": "Point", "coordinates": [ 106.8469668, -6.2250819 ] } },
{ "type": "Feature", "id": "way/483583697", "properties": { "@id": "way/483583697", "amenity": "cafe", "building": "house", "cuisine": "coffee_shop;milk;toast", "internet_access": "no", "name": "Nyeger' & Toast", "opening_hours": "Mo-Su 10:00-22:00", "outdoor_seating": "no", "@geometry": "center" }, "geometry": { "type": "Point", "coordinates": [ 106.8441018, -6.2268884 ] } },
{ "type": "Feature", "id": "way/483594036", "properties": { "@id": "way/483594036", "amenity": "restaurant", "building": "yes", "name": "Warteg Pink", "@geometry": "center" }, "geometry": { "type": "Point", "coordinates": [ 106.8461082, -6.227778 ] } },
{ "type": "Feature", "id": "way/484662682", "properties": { "@id": "way/484662682", "addr:full": "Jalan Tebet Barat Raya", "amenity": "restaurant", "building": "yes", "name": "Burcik Resto 263", "@geometry": "center" }, "geometry": { "type": "Point", "coordinates": [ 106.8506717, -6.2344642 ] } },
{ "type": "Feature", "id": "way/484662683", "properties": { "@id": "way/484662683", "amenity": "internet_cafe", "building": "yes", "name": "Cyber Net & Cafe", "@geometry": "center" }, "geometry": { "type": "Point", "coordinates": [ 106.8505865, -6.2342947 ] } },
{ "type": "Feature", "id": "way/484865547", "properties": { "@id": "way/484865547", "addr:street": "Jalan Tebet Timur Dalam Raya", "amenity": "cafe", "building": "yes", "cuisine": "coffee_shop", "name": "Lektur", "outdoor_seating": "no", "@geometry": "center" }, "geometry": { "type": "Point", "coordinates": [ 106.8571892, -6.2356705 ] } },
{ "type": "Feature", "id": "way/486507433", "properties": { "@id": "way/486507433", "addr:street": "Jalan Tebet Raya", "amenity": "restaurant", "building": "yes", "cuisine": "indonesian", "name": "RM Padang \"Keluarga\"", "@geometry": "center" }, "geometry": { "type": "Point", "coordinates": [ 106.8517965, -6.2300511 ] } },
{ "type": "Feature", "id": "way/487617482", "properties": { "@id": "way/487617482", "amenity": "restaurant", "building": "yes", "name": "Bakso Anom Gondrong", "@geometry": "center" }, "geometry": { "type": "Point", "coordinates": [ 106.8713618, -6.2356695 ] } },
{ "type": "Feature", "id": "way/488153150", "properties": { "@id": "way/488153150", "addr:city": "Jakarta Selatan", "addr:district": "Tebet", "addr:postcode": "12820", "addr:province": "DKI Jakarta", "addr:street": "Jalan K. Haji Abdul Syafi'ie", "addr:subdistrict": "Tebet Timur", "branch": "Lapangan Ros-1 SOUTH JAKARTA", "brand": "Shell Select", "brand:wikidata": "Q124359752", "building": "yes", "name": "Shell Select", "opening_hours": "Mo-Su 00:00-23:59", "operator": "Shell PLC", "payment:cash": "yes", "payment:credit_cards": "yes", "payment:debit_cards": "yes", "payment:visa": "yes", "shop": "convenience", "@geometry": "center" }, "geometry": { "type": "Point", "coordinates": [ 106.8526331, -6.2250265 ] } },
{ "type": "Feature", "id": "way/488209337", "properties": { "@id": "way/488209337", "amenity": "restaurant", "building": "yes", "name": "Cafe Iyul", "@geometry": "center" }, "geometry": { "type": "Point", "coordinates": [ 106.8729677, -6.2260735 ] } },
{ "type": "Feature", "id": "way/488412413", "properties": { "@id": "way/488412413", "amenity": "restaurant", "building": "yes", "name": "Martabak Kubang Hayuda", "@geometry": "center" }, "geometry": { "type": "Point", "coordinates": [ 106.844314, -6.2172924 ] } },
{ "type": "Feature", "id": "way/488415890", "properties": { "@id": "way/488415890", "addr:street": "Jalan Dokter Saharjo", "amenity": "restaurant", "building": "yes", "name": "Mie Keriting Tok Tok", "@geometry": "center" }, "geometry": { "type": "Point", "coordinates": [ 106.844673, -6.2177931 ] } },
{ "type": "Feature", "id": "way/489487302", "properties": { "@id": "way/489487302", "amenity": "restaurant", "building": "yes", "name": "Parte Ceker Rempah", "@geometry": "center" }, "geometry": { "type": "Point", "coordinates": [ 106.8558228, -6.2308734 ] } },
{ "type": "Feature", "id": "way/492234757", "properties": { "@id": "way/492234757", "access:roof": "no", "addr:city": "DKI Jakarta", "addr:full": "Jalan Pisangan Timur Selatan", "backup_generator": "yes", "building": "supermarket", "building:condition": "good", "building:floor": "ceramics", "building:levels": "1", "building:roof": "tin", "building:structure": "steel_frame", "building:walls": "concrete", "capacity:persons": ">500", "name": "Indogrosir", "shop": "supermarket", "source": "HOT_InAWARESurvey_2017", "@geometry": "center" }, "geometry": { "type": "Point", "coordinates": [ 106.8830875, -6.2128805 ] } },
{ "type": "Feature", "id": "way/492259400", "properties": { "@id": "way/492259400", "amenity": "restaurant", "branch": "Pisangan Timur", "building": "yes", "name": "Bakso Tahu & Dimsum Redha", "@geometry": "center" }, "geometry": { "type": "Point", "coordinates": [ 106.8757507, -6.2102816 ] } },
{ "type": "Feature", "id": "way/492940049", "properties": { "@id": "way/492940049", "amenity": "restaurant", "building": "yes", "cuisine": "asian", "name": "Mie Ayam Bakso Z-Lam", "@geometry": "center" }, "geometry": { "type": "Point", "coordinates": [ 106.8514457, -6.2108244 ] } },
{ "type": "Feature", "id": "way/493587309", "properties": { "@id": "way/493587309", "addr:city": "DKI Jakarta", "addr:housenumber": "18", "addr:postcode": "12840", "addr:street": "Jalan Sawo Kecik V", "amenity": "restaurant", "building": "yes", "cuisine": "mie_ayam;noodles", "description": "Mie Ayam Setapak Tersedia di GoFood GrabFood ShopeeFood", "diet:halal": "yes", "diet:healthy": "yes", "name": "MIE AYAM SETAPAK", "opening_hours": "11:00-20:00", "opening_hours:covid19": "restricted", "takeaway": "yes", "website": "https://mie-ayam-setapak.business.site", "@geometry": "center" }, "geometry": { "type": "Point", "coordinates": [ 106.8575347, -6.222985 ] } },
{ "type": "Feature", "id": "way/495341002", "properties": { "@id": "way/495341002", "amenity": "restaurant", "building": "yes", "name": "MIE Ayam UMAR", "opening_hours": "Mo-Su 08:00-22:00", "@geometry": "center" }, "geometry": { "type": "Point", "coordinates": [ 106.8626397, -6.233205 ] } },
{ "type": "Feature", "id": "way/496536209", "properties": { "@id": "way/496536209", "access:roof": "no", "addr:city": "DKI Jakarta", "addr:full": "Jalan Balai Pustaka Baru", "backup_generator": "yes", "building": "supermarket", "building:condition": "good", "building:floor": "ceramics", "building:levels": "2", "building:roof": "tin", "building:structure": "steel_frame", "building:walls": "concrete", "capacity:persons": ">500", "name": "Tip Top Swalayan", "shop": "supermarket", "source": "HOT_InAWARESurvey_2017", "@geometry": "center" }, "geometry": { "type": "Point", "coordinates": [ 106.8863567, -6.20069 ] } },
{ "type": "Feature", "id": "way/502275355", "properties": { "@id": "way/502275355", "amenity": "restaurant", "building": "yes", "name": "Nasi Uduk Kebon Kacang Rawamangun", "@geometry": "center" }, "geometry": { "type": "Point", "coordinates": [ 106.8797076, -6.1925766 ] } },
{ "type": "Feature", "id": "way/504689273", "properties": { "@id": "way/504689273", "addr:city": "DKI Jakarta", "addr:postcode": "13220", "addr:street": "Jalan Kamboja", "amenity": "restaurant", "building": "yes", "cuisine": "regional;asinan", "name": "Asinan Betawi H. Mansyur Kamboja", "@geometry": "center" }, "geometry": { "type": "Point", "coordinates": [ 106.8849697, -6.2008497 ] } },
{ "type": "Feature", "id": "way/509015471", "properties": { "@id": "way/509015471", "addr:postcode": "13310", "addr:street": "Jalan Jatinegara Timur", "building": "supermarket", "name": "Mini Super Jatinegara", "shop": "supermarket", "@geometry": "center" }, "geometry": { "type": "Point", "coordinates": [ 106.8684112, -6.2224858 ] } },
{ "type": "Feature", "id": "way/542077221", "properties": { "@id": "way/542077221", "amenity": "cafe", "building": "yes", "name": "Kopimana27", "@geometry": "center" }, "geometry": { "type": "Point", "coordinates": [ 106.8457394, -6.2393316 ] } },
{ "type": "Feature", "id": "way/825768146", "properties": { "@id": "way/825768146", "addr:street": "Jalan Dokter Saharjo", "amenity": "restaurant", "building": "yes", "cuisine": "chicken;noodles", "name": "Pondok Suromadu", "@geometry": "center" }, "geometry": { "type": "Point", "coordinates": [ 106.8447216, -6.2179164 ] } },
{ "type": "Feature", "id": "way/827190703", "properties": { "@id": "way/827190703", "amenity": "restaurant", "building": "yes", "name": "Kantin KOPEBI", "@geometry": "center" }, "geometry": { "type": "Point", "coordinates": [ 106.8423864, -6.241516 ] } },
{ "type": "Feature", "id": "way/1086271143", "properties": { "@id": "way/1086271143", "addr:housenumber": "107a", "addr:postcode": "12820", "addr:street": "Jalan Tebet Timur Dalam Raya", "amenity": "cafe", "building": "yes", "building:levels": "1", "contact:instagram": "poutercoffee.id", "cuisine": "coffee_shop", "internet_access": "wlan", "internet_access:fee": "customers", "level": "1", "name": "Pouter Coffee", "opening_hours": "Mo-Su 10:00-22:00", "outdoor_seating": "yes", "website": "https://linktr.ee/poutercoffee", "@geometry": "center" }, "geometry": { "type": "Point", "coordinates": [ 106.8571342, -6.2369608 ] } },
{ "type": "Feature", "id": "way/1098025880", "properties": { "@id": "way/1098025880", "amenity": "restaurant", "building": "yes", "@geometry": "center" }, "geometry": { "type": "Point", "coordinates": [ 106.8568389, -6.232959 ] } },
{ "type": "Feature", "id": "way/1098029544", "properties": { "@id": "way/1098029544", "addr:city": "Jakarta Selatan", "addr:postcode": "12820", "addr:street": "Jalan Tebet Timur Dalam Raya", "amenity": "restaurant", "building": "yes", "cuisine": "ramen;japanese", "diet:halal": "yes", "name": "Jonkira", "@geometry": "center" }, "geometry": { "type": "Point", "coordinates": [ 106.8568758, -6.2381545 ] } },
{ "type": "Feature", "id": "way/1098212985", "properties": { "@id": "way/1098212985", "addr:city": "Jakarta Selatan", "addr:housenumber": "103", "addr:postcode": "12820", "addr:street": "Jalan Tebet Timur Dalam Raya", "air_conditioning": "no", "amenity": "restaurant", "building": "hut", "cuisine": "seafood", "name": "Seafood 68 Tebet", "opening_hours": "Mo-Su 18:00-18:00", "outdoor_seating": "yes", "takeaway": "yes", "@geometry": "center" }, "geometry": { "type": "Point", "coordinates": [ 106.8571847, -6.2365778 ] } },
{ "type": "Feature", "id": "way/1098546295", "properties": { "@id": "way/1098546295", "addr:city": "Jakarta Selatan", "addr:housenumber": "9", "addr:postcode": "12820", "addr:street": "Jalan Tebet Timur Dalam Raya", "brand": "Alfamart", "brand:wikidata": "Q23745600", "building": "yes", "name": "Alfamart", "opening_hours": "Mo-Su 08:00-22:00", "payment:cash": "yes", "payment:credit_cards": "yes", "payment:debit_cards": "yes", "payment:mastercard": "yes", "payment:qris": "yes", "payment:visa": "yes", "shop": "convenience", "@geometry": "center" }, "geometry": { "type": "Point", "coordinates": [ 106.8571373, -6.2349028 ] } },
{ "type": "Feature", "id": "way/1101486280", "properties": { "@id": "way/1101486280", "addr:city": "Jakarta Selatan", "addr:housenumber": "11", "addr:postcode": "12820", "addr:street": "Jalan Tebet Timur Dalam Raya", "amenity": "cafe", "building": "yes", "cuisine": "coffee_shop", "name": "KOUP!", "opening_hours": "Mo-Su 09:00-22:00", "outdoor_seating": "yes", "@geometry": "center" }, "geometry": { "type": "Point", "coordinates": [ 106.8568453, -6.2364739 ] } },
{ "type": "Feature", "id": "way/1103897926", "properties": { "@id": "way/1103897926", "alt_name": "Gelael Signature", "building": "yes", "building:levels": "2", "building:roof": "tile", "building:structure": "reinforced_masonry", "building:use": "commercial", "building:walls": "brick", "name": "Gelael", "shop": "supermarket", "@geometry": "center" }, "geometry": { "type": "Point", "coordinates": [ 106.847233, -6.2427389 ] } },
{ "type": "Feature", "id": "way/1112663961", "properties": { "@id": "way/1112663961", "amenity": "restaurant", "building": "yes", "@geometry": "center" }, "geometry": { "type": "Point", "coordinates": [ 106.8674298, -6.1937315 ] } },
{ "type": "Feature", "id": "way/1156931660", "properties": { "@id": "way/1156931660", "addr:city": "Tebet, South Jakarta", "addr:housenumber": "72", "addr:postcode": "12820", "addr:street": "Jl. Tebet Raya No.72, RT.2/RW.4,", "amenity": "restaurant", "building": "yes", "cuisine": "burger;pizza;coffee_shop;chicken;fish", "diet:halal": "yes", "name": "tebet food street", "opening_hours": "sunrise-sunset", "phone": "(021) 8298676", "@geometry": "center" }, "geometry": { "type": "Point", "coordinates": [ 106.8556853, -6.2277895 ] } },
{ "type": "Feature", "id": "way/1184120073", "properties": { "@id": "way/1184120073", "addr:city": "Jakarta Selatan", "addr:postcode": "12820", "addr:street": "Jalan Tebet Timur Dalam Raya", "amenity": "restaurant", "building": "yes", "cuisine": "indonesian", "diet:halal": "yes", "name": "Mie Aceh Abue", "opening_hours": "Mo-Su 10:00-23:00", "@geometry": "center" }, "geometry": { "type": "Point", "coordinates": [ 106.8569933, -6.2339546 ] } },
{ "type": "Feature", "id": "way/1318751388", "properties": { "@id": "way/1318751388", "addr:city": "Jakarta Timur", "addr:district": "Jatinegara", "addr:postcode": "13410", "addr:province": "DKI Jakarta", "addr:street": "Jalan Haji Darip", "addr:subdistrict": "Cipinang Besar Utara", "branch": "Cipinang-1 EAST JKT", "brand": "Shell Select", "brand:wikidata": "Q124359752", "building": "yes", "name": "Shell Select", "opening_hours": "Mo-Su 00:00-23:59", "operator": "Shell PLC", "payment:cash": "yes", "payment:credit_cards": "yes", "payment:debit_cards": "yes", "payment:visa": "yes", "shop": "convenience", "@geometry": "center" }, "geometry": { "type": "Point", "coordinates": [ 106.8796516, -6.215403 ] } },
{ "type": "Feature", "id": "way/1318751389", "properties": { "@id": "way/1318751389", "addr:city": "Jakarta Timur", "addr:district": "Pulo Gadung", "addr:postcode": "13220", "addr:province": "DKI Jakarta", "addr:street": "Jalan Pemuda", "addr:subdistrict": "Rawamangun", "branch": "Pemuda-2 EAST JKT", "brand": "Shell Select", "brand:wikidata": "Q124359752", "building": "yes", "name": "Shell Select", "opening_hours": "Mo-Su 00:00-23:59", "operator": "Shell PLC", "payment:cash": "yes", "payment:credit_cards": "yes", "payment:debit_cards": "yes", "payment:visa": "yes", "shop": "convenience", "@geometry": "center" }, "geometry": { "type": "Point", "coordinates": [ 106.8818691, -6.1923677 ] } },
{ "type": "Feature", "id": "way/1318751390", "properties": { "@id": "way/1318751390", "addr:city": "Jakarta Timur", "addr:district": "Pulo Gadung", "addr:postcode": "13220", "addr:province": "DKI Jakarta", "addr:street": "Jalan Pemuda", "addr:subdistrict": "Rawamangun", "branch": "Pemuda-1 EAST JKT", "brand": "Shell Select", "brand:wikidata": "Q124359752", "building": "yes", "name": "Shell Select", "opening_hours": "Mo-Su 00:00-23:59", "operator": "Shell PLC", "payment:cash": "yes", "payment:credit_cards": "yes", "payment:debit_cards": "yes", "payment:visa": "yes", "shop": "convenience", "@geometry": "center" }, "geometry": { "type": "Point", "coordinates": [ 106.8888148, -6.1938406 ] } },
{ "type": "Feature", "id": "way/1318966805", "properties": { "@id": "way/1318966805", "addr:city": "Jakarta Selatan", "addr:district": "Tebet", "addr:postcode": "12810", "addr:province": "DKI Jakarta", "addr:street": "Jalan Profesor Dokter Supomo SH", "addr:subdistrict": "Tebet Barat", "branch": "Soepomo-1 SOUTH JKT", "brand": "Shell Select", "brand:wikidata": "Q124359752", "building": "yes", "layer": "-1", "name": "Shell Select", "opening_hours": "Mo-Su 00:00-23:59", "operator": "Shell PLC", "payment:cash": "yes", "payment:credit_cards": "yes", "payment:debit_cards": "yes", "payment:visa": "yes", "shop": "convenience", "@geometry": "center" }, "geometry": { "type": "Point", "coordinates": [ 106.8468601, -6.2313518 ] } },
{ "type": "Feature", "id": "way/1318966809", "properties": { "@id": "way/1318966809", "addr:city": "Jakarta Selatan", "addr:district": "Tebet", "addr:postcode": "12820", "addr:province": "DKI Jakarta", "addr:street": "Jalan Letnan Jenderal MT Haryono", "addr:subdistrict": "Tebet Timur", "branch": "MT Haryono-2 SOUTH JKT", "brand": "Shell Select", "brand:wikidata": "Q124359752", "building": "yes", "name": "Shell Select", "opening_hours": "Mo-Su 00:00-23:59", "operator": "Shell PLC", "payment:cash": "yes", "payment:credit_cards": "yes", "payment:debit_cards": "yes", "payment:visa": "yes", "shop": "convenience", "@geometry": "center" }, "geometry": { "type": "Point", "coordinates": [ 106.8555082, -6.2423547 ] } },
{ "type": "Feature", "id": "way/1319706052", "properties": { "@id": "way/1319706052", "addr:city": "Jakarta Selatan", "addr:district": "Tebet", "addr:postcode": "12870", "addr:province": "DKI Jakarta", "addr:street": "Jalan Jenderal Gatot Subroto", "addr:subdistrict": "Menteng Dalam", "branch": "Gatot Subroto-1 SOUTH JKT", "brand": "Shell Select", "brand:wikidata": "Q124359752", "building": "yes", "name": "Shell Select", "opening_hours": "Mo-Su 06:00-22:00", "operator": "Shell PLC", "payment:cash": "yes", "payment:credit_cards": "yes", "payment:debit_cards": "yes", "payment:visa": "yes", "shop": "convenience", "@geometry": "center" }, "geometry": { "type": "Point", "coordinates": [ 106.8370235, -6.2406826 ] } },
{ "type": "Feature", "id": "way/1319978746", "properties": { "@id": "way/1319978746", "brand": "Bright", "building": "yes", "name": "Bright Store", "opening_hours": "24/7", "operator": "PT. Pertamina Retail", "payment:cash": "yes", "payment:credit_cards": "yes", "payment:debit_cards": "yes", "payment:mastercard": "yes", "payment:visa": "yes", "shop": "convenience", "wikidata": "Q130389269", "@geometry": "center" }, "geometry": { "type": "Point", "coordinates": [ 106.8677601, -6.2313809 ] } },
{ "type": "Feature", "id": "node/1395485007", "properties": { "@id": "node/1395485007", "brand": "Star Mart", "brand:wikidata": "Q61994857", "name": "Star Mart", "shop": "convenience" }, "geometry": { "type": "Point", "coordinates": [ 106.8358151, -6.2204316 ] } },
{ "type": "Feature", "id": "node/1848532134", "properties": { "@id": "node/1848532134", "amenity": "restaurant", "brand": "Pizza Hut", "brand:wikidata": "Q191615", "cuisine": "pizza", "name": "Pizza Hut" }, "geometry": { "type": "Point", "coordinates": [ 106.8857661, -6.1989263 ] } },
{ "type": "Feature", "id": "node/1848546450", "properties": { "@id": "node/1848546450", "name": "Jessy Bread", "shop": "bakery" }, "geometry": { "type": "Point", "coordinates": [ 106.8858917, -6.1982939 ] } },
{ "type": "Feature", "id": "node/1848548857", "properties": { "@id": "node/1848548857", "amenity": "restaurant", "name": "Ayam Balphuss" }, "geometry": { "type": "Point", "coordinates": [ 106.8857998, -6.2013183 ] } },
{ "type": "Feature", "id": "node/1848548858", "properties": { "@id": "node/1848548858", "amenity": "restaurant", "name": "Riung Tenda" }, "geometry": { "type": "Point", "coordinates": [ 106.8858153, -6.2011358 ] } },
{ "type": "Feature", "id": "node/1848569685", "properties": { "@id": "node/1848569685", "amenity": "restaurant", "name": "Ayam Bakar Gilimanuk" }, "geometry": { "type": "Point", "coordinates": [ 106.8862437, -6.1970682 ] } },
{ "type": "Feature", "id": "node/1848569693", "properties": { "@id": "node/1848569693", "amenity": "restaurant", "name": "Ikan Bakar Banyuwangi" }, "geometry": { "type": "Point", "coordinates": [ 106.8858317, -6.2007422 ] } },
{ "type": "Feature", "id": "node/1868697619", "properties": { "@id": "node/1868697619", "brand": "7-Eleven", "brand:wikidata": "Q259340", "brand:wikipedia": "en:7-Eleven", "name": "7-Eleven", "shop": "convenience" }, "geometry": { "type": "Point", "coordinates": [ 106.8467778, -6.2357044 ] } },
{ "type": "Feature", "id": "node/2125239099", "properties": { "@id": "node/2125239099", "addr:housename": "Indomaret", "addr:street": "KH Abdul Syafii", "branch": "KH Abdul Syafii", "brand": "Indomaret", "brand:wikidata": "Q4262825", "name": "Indomaret", "shop": "convenience" }, "geometry": { "type": "Point", "coordinates": [ 106.8526074, -6.224148 ] } },
{ "type": "Feature", "id": "node/2125250880", "properties": { "@id": "node/2125250880", "addr:housename": "Mamink Daeng Tata", "addr:street": "KH Abdul Syafii", "amenity": "restaurant", "cuisine": "regional", "name": "Mamink Daeng Tata" }, "geometry": { "type": "Point", "coordinates": [ 106.8515147, -6.2239344 ] } },
{ "type": "Feature", "id": "node/2216025046", "properties": { "@id": "node/2216025046", "amenity": "restaurant", "cuisine": "regional", "name": "Sederhana" }, "geometry": { "type": "Point", "coordinates": [ 106.8828857, -6.1965871 ] } },
{ "type": "Feature", "id": "node/2410698589", "properties": { "@id": "node/2410698589", "brand": "Alfamart", "brand:wikidata": "Q23745600", "name": "Alfamart", "shop": "convenience" }, "geometry": { "type": "Point", "coordinates": [ 106.886394, -6.220532 ] } },
{ "type": "Feature", "id": "node/2410698590", "properties": { "@id": "node/2410698590", "brand": "Indomaret", "brand:wikidata": "Q4262825", "name": "Indomaret", "shop": "convenience" }, "geometry": { "type": "Point", "coordinates": [ 106.8863297, -6.2206813 ] } },
{ "type": "Feature", "id": "node/2461406098", "properties": { "@id": "node/2461406098", "amenity": "restaurant", "cuisine": "regional" }, "geometry": { "type": "Point", "coordinates": [ 106.8372392, -6.2178927 ] } },
{ "type": "Feature", "id": "node/2565954603", "properties": { "@id": "node/2565954603", "addr:city": "Jakarta Selatan", "addr:housenumber": "9", "addr:postcode": "12870", "addr:street": "Tebet Utara 4C", "amenity": "restaurant", "capacity": "15", "cuisine": "regional", "description": "Asian food", "name": "Rava House", "smoking": "separated", "takeaway": "yes" }, "geometry": { "type": "Point", "coordinates": [ 106.8548632, -6.2277225 ] } },
{ "type": "Feature", "id": "node/2565955884", "properties": { "@id": "node/2565955884", "addr:city": "Tebet, South Jakarta", "addr:housenumber": "6", "addr:postcode": "12820", "addr:street": "Tebet Utara 1A", "amenity": "restaurant", "capacity": "30", "cuisine": "regional", "description": "a lot of kind of food here", "name": "Musketeers", "source": "HOT_InAWARESurvey_2017", "takeaway": "yes" }, "geometry": { "type": "Point", "coordinates": [ 106.8551233, -6.2275834 ] } },
{ "type": "Feature", "id": "node/2565955999", "properties": { "@id": "node/2565955999", "addr:city": "Tebet, South Jakarta", "addr:housenumber": "5", "addr:postcode": "12810", "addr:street": "Tebet Utara Dalam", "amenity": "restaurant", "capacity": "10", "cuisine": "regional", "description": "turki's food", "name": "Kebab Baba Rafi", "smoking": "separated", "source": "HOT_InAWARESurvey_2017", "takeaway": "yes" }, "geometry": { "type": "Point", "coordinates": [ 106.8552056, -6.2277934 ] } },
{ "type": "Feature", "id": "node/2565956000", "properties": { "@id": "node/2565956000", "addr:city": "Tebet, South Jakarta", "addr:street": "Tebet Utara Dalam", "amenity": "restaurant", "capacity": "50", "cuisine": "regional", "description": "provide Indonesian food", "name": "Bakul TUkul", "opening_hours": "11:00 - 24:00", "smoking": "separated", "takeaway": "yes" }, "geometry": { "type": "Point", "coordinates": [ 106.8548485, -6.2272402 ] } },
{ "type": "Feature", "id": "node/2565956001", "properties": { "@id": "node/2565956001", "amenity": "restaurant", "capacity": "30", "cuisine": "regional", "description": "a delicious fried duck here!!", "name": "Nasi Bebek", "opening_hours": "11:00 - 23:00", "smoking": "isolated", "takeaway": "yes" }, "geometry": { "type": "Point", "coordinates": [ 106.8549559, -6.227208 ] } },
{ "type": "Feature", "id": "node/2566014846", "properties": { "@id": "node/2566014846", "addr:city": "Jakarta Selatan", "addr:housename": "Ayam Panggang Rawamangun", "addr:street": "Tebet Utara Dalam", "amenity": "restaurant", "cuisine": "chicken", "name": "Ayam Panggang Rawamangun" }, "geometry": { "type": "Point", "coordinates": [ 106.8549625, -6.226385 ] } },
{ "type": "Feature", "id": "node/2703703612", "properties": { "@id": "node/2703703612", "addr:city": "East Tebet", "addr:postcode": "12820", "addr:street": "KH Abdul Syafi'ie", "amenity": "cafe", "cuisine": "coffee_shop", "internet_access": "yes", "name": "The Cake Storage" }, "geometry": { "type": "Point", "coordinates": [ 106.8574812, -6.2258157 ] } },
{ "type": "Feature", "id": "node/3339281357", "properties": { "@id": "node/3339281357", "addr:city": "DKI Jakarta", "addr:street": "Gading Raya", "brand": "Indomaret", "brand:wikidata": "Q4262825", "name": "Indomaret", "shop": "convenience" }, "geometry": { "type": "Point", "coordinates": [ 106.8814239, -6.2088177 ] } },
{ "type": "Feature", "id": "node/3415431325", "properties": { "@id": "node/3415431325", "corridor11": "yes", "name": "Pasar Enjo", "note": "Pasar Enjo", "shelter": "yes", "shelter_tj": "yes", "shop": "supermarket" }, "geometry": { "type": "Point", "coordinates": [ 106.8782975, -6.2150083 ] } },
{ "type": "Feature", "id": "node/3819243997", "properties": { "@id": "node/3819243997", "amenity": "restaurant", "name": "Ayam Bakar Mas Mono" }, "geometry": { "type": "Point", "coordinates": [ 106.855643, -6.2282169 ] } },
{ "type": "Feature", "id": "node/3819338014", "properties": { "@id": "node/3819338014", "shop": "supermarket" }, "geometry": { "type": "Point", "coordinates": [ 106.8593218, -6.2287789 ] } },
{ "type": "Feature", "id": "node/3819338016", "properties": { "@id": "node/3819338016", "amenity": "restaurant", "brand": "Pizza Hut", "brand:wikidata": "Q191615", "cuisine": "pizza", "name": "Pizza Hut", "name:en": "Pizza Hut" }, "geometry": { "type": "Point", "coordinates": [ 106.8553326, -6.2248596 ] } },
{ "type": "Feature", "id": "node/3819338022", "properties": { "@id": "node/3819338022", "amenity": "restaurant", "name": "Soto Gebrak!" }, "geometry": { "type": "Point", "coordinates": [ 106.8531475, -6.224826 ] } },
{ "type": "Feature", "id": "node/3819338023", "properties": { "@id": "node/3819338023", "amenity": "restaurant" }, "geometry": { "type": "Point", "coordinates": [ 106.8528602, -6.2242716 ] } },
{ "type": "Feature", "id": "node/3819338024", "properties": { "@id": "node/3819338024", "amenity": "restaurant", "name": "Sop Konro" }, "geometry": { "type": "Point", "coordinates": [ 106.8516889, -6.2239976 ] } },
{ "type": "Feature", "id": "node/3819348104", "properties": { "@id": "node/3819348104", "amenity": "restaurant", "name": "Bakmi Toko TIga" }, "geometry": { "type": "Point", "coordinates": [ 106.8473812, -6.2413781 ] } },
{ "type": "Feature", "id": "node/3819348108", "properties": { "@id": "node/3819348108", "addr:city": "South Jakarta", "addr:housenumber": "321", "addr:postcode": "12810", "addr:street": "Jl. Prof Supomo", "branch": "Point Tebet Supomo", "brand": "Indomaret", "brand:wikidata": "Q4262825", "brand:wikipedia": "en:Indomaret", "name": "Indomaret", "shop": "convenience" }, "geometry": { "type": "Point", "coordinates": [ 106.8475673, -6.2291695 ] } },
{ "type": "Feature", "id": "node/4148233914", "properties": { "@id": "node/4148233914", "addr:city": "Tebet, South Jakarta", "addr:housenumber": "No.53D", "addr:postcode": "12810", "addr:street": "Jalan Tebet Raya", "amenity": "cafe", "cuisine": "regional", "description": "a lot of superhero picture here, you should take a photo!!", "internet_access": "yes", "name": "Comic Cafe", "opening_hours": "10:00 - 24:00", "smoking": "isolated", "source": "HOT_InAWARESurvey_2017" }, "geometry": { "type": "Point", "coordinates": [ 106.8550641, -6.2283462 ] } },
{ "type": "Feature", "id": "node/4235054329", "properties": { "@id": "node/4235054329", "addr:city": "Kebon Manggis, Matraman, East Jakarta", "addr:housenumber": "15", "addr:postcode": "10310", "addr:street": "Jalan Matraman Raya", "amenity": "restaurant", "name": "Abunawas Restaurant" }, "geometry": { "type": "Point", "coordinates": [ 106.8528692, -6.2005439 ] } },
{ "type": "Feature", "id": "node/4240720113", "properties": { "@id": "node/4240720113", "addr:city": "Tebet, South Jakarta", "addr:housenumber": "No. 78B", "addr:postcode": "12830", "addr:street": "Jl. Tebet Raya", "amenity": "restaurant", "name": "Bamboo Dim Sum" }, "geometry": { "type": "Point", "coordinates": [ 106.8585708, -6.2259636 ] } },
{ "type": "Feature", "id": "node/4240747874", "properties": { "@id": "node/4240747874", "addr:city": "Bukit Duri, Tebet, South Jakarta", "addr:postcode": "12820", "addr:street": "Jalan Lapangan Roos No.49", "amenity": "restaurant", "name": "Bebek Kaleyo 6" }, "geometry": { "type": "Point", "coordinates": [ 106.8567311, -6.225605 ] } },
{ "type": "Feature", "id": "node/4242314139", "properties": { "@id": "node/4242314139", "addr:city": "Tebet, South Jakarta", "addr:housenumber": "No.2A, RT.9/RW.1", "addr:postcode": "12810", "addr:street": "l. Tebet Utara Dalam", "amenity": "cafe", "cuisine": "regional", "description": "western food and Indonesian food provide here", "name": "Eat Happens Tebet", "opening_hours": "16:00 - 23:00", "smoking": "separated" }, "geometry": { "type": "Point", "coordinates": [ 106.85525, -6.2281863 ] } },
{ "type": "Feature", "id": "node/4242599193", "properties": { "@id": "node/4242599193", "addr:city": "South Jakarta", "addr:postcode": "12870", "addr:street": "Jl. Jenderal Gatot Subroto, Kav. 1000, RT 10 RW 01, Tebet, Menteng Dalam", "amenity": "restaurant", "name": "Restoran Pizza Hut - Gatot Subroto Jakarta" }, "geometry": { "type": "Point", "coordinates": [ 106.8395348, -6.2414782 ] } },
{ "type": "Feature", "id": "node/4244115339", "properties": { "@id": "node/4244115339", "addr:city": "East Jakarta", "addr:housenumber": "25", "addr:postcode": "13220", "addr:street": "Jl. Balai Pustaka Tim. , Rawamangun, Pulo Gadung,", "amenity": "cafe", "name": "Roti Pisang Bakar (Ropisbak) Ghifari" }, "geometry": { "type": "Point", "coordinates": [ 106.8862803, -6.1973271 ] } },
{ "type": "Feature", "id": "node/4261925215", "properties": { "@id": "node/4261925215", "addr:city": "East Jakarta", "addr:housenumber": "109", "addr:postcode": "13930", "addr:street": "Jl. Jatinegara Timur", "branch": "Jatinegara", "brand": "Holland Bakery", "brand:wikidata": "Q19726345", "name": "Holland Bakery", "shop": "bakery" }, "geometry": { "type": "Point", "coordinates": [ 106.8680897, -6.2236787 ] } },
{ "type": "Feature", "id": "node/4262034421", "properties": { "@id": "node/4262034421", "addr:city": "South Jakarta", "addr:housenumber": "317 AC", "addr:postcode": "12810", "addr:street": "Jl. Dr. Saharjo", "branch": "Sahardjo", "brand": "Holland Bakery", "brand:wikidata": "Q19726345", "name": "Holland Bakery", "shop": "bakery" }, "geometry": { "type": "Point", "coordinates": [ 106.8477323, -6.2280377 ] } },
{ "type": "Feature", "id": "node/4262039041", "properties": { "@id": "node/4262039041", "addr:city": "Tebet, South Jakarta", "addr:housenumber": "54C", "addr:postcode": "12820", "addr:street": "Jalan Tebet Raya", "name": "Clairmont Tebet", "shop": "bakery" }, "geometry": { "type": "Point", "coordinates": [ 106.85433, -6.2289853 ] } },
{ "type": "Feature", "id": "node/4262044002", "properties": { "@id": "node/4262044002", "addr:city": "Tebet, South Jakarta", "addr:housenumber": "185", "addr:postcode": "12870", "addr:street": "Jalan Jenderal Gatot Subroto", "name": "All Fresh Gatot Subroto", "shop": "supermarket" }, "geometry": { "type": "Point", "coordinates": [ 106.8391521, -6.2413154 ] } },
{ "type": "Feature", "id": "node/4262046651", "properties": { "@id": "node/4262046651", "addr:city": "Pulogadung, East Jakarta", "addr:postcode": "13220", "addr:street": "Balai Pustaka Timur", "branch": "Rawamangun", "brand": "Holland Bakery", "brand:wikidata": "Q19726345", "name": "Holland Bakery", "shop": "bakery" }, "geometry": { "type": "Point", "coordinates": [ 106.885764, -6.1991153 ] } },
{ "type": "Feature", "id": "node/4262065932", "properties": { "@id": "node/4262065932", "addr:city": "Tebet, South Jakarta", "addr:housenumber": "43", "addr:postcode": "12810", "addr:street": "Jalan Tebet Barat Dalam", "name": "Dapur Cokelat Tebet", "shop": "bakery" }, "geometry": { "type": "Point", "coordinates": [ 106.8475534, -6.2380413 ] } },
{ "type": "Feature", "id": "node/4347149038", "properties": { "@id": "node/4347149038", "branch": "Bidara Cina", "brand": "Indomaret", "brand:wikidata": "Q4262825", "name": "Indomaret", "shop": "convenience" }, "geometry": { "type": "Point", "coordinates": [ 106.8670762, -6.2289631 ] } },
{ "type": "Feature", "id": "node/4430931999", "properties": { "@id": "node/4430931999", "addr:city": "South Jakarta", "addr:housenumber": "27D", "addr:postcode": "12870", "addr:street": "Jalan Tebet Raya", "amenity": "restaurant", "capacity": "40", "cuisine": "regional", "delivery": "yes", "description": "this restaurant has a lot of flavor (Indoesia flavor). And their fried rice is the most scathing fried rice in Indonesia \"killing hot flavor\".", "name": "Nasi Goreng Mafia", "opening_hours": "10:00 - 22:00", "smoking": "separated", "takeaway": "yes" }, "geometry": { "type": "Point", "coordinates": [ 106.8532139, -6.2293443 ] } },
{ "type": "Feature", "id": "node/4542473190", "properties": { "@id": "node/4542473190", "addr:postcode": "12870", "addr:street": "No.26, Jalan Rasmala Raya, Menteng Dalam, Tebet, RT.7/RW.9, Menteng Dalam, Jakarta Selatan", "brand": "Indomaret", "brand:wikidata": "Q4262825", "brand:wikipedia": "en:Indomaret", "internet_access": "wlan", "name": "Indomaret", "name:en": "Indomaret", "opening_hours": "24/7", "shop": "convenience" }, "geometry": { "type": "Point", "coordinates": [ 106.8395378, -6.2337502 ] } },
{ "type": "Feature", "id": "node/4622438790", "properties": { "@id": "node/4622438790", "amenity": "restaurant", "name:ar": "    " }, "geometry": { "type": "Point", "coordinates": [ 106.8673898, -6.2346319 ] } },
{ "type": "Feature", "id": "node/4833821423", "properties": { "@id": "node/4833821423", "shop": "convenience" }, "geometry": { "type": "Point", "coordinates": [ 106.8708015, -6.2151522 ] } },
{ "type": "Feature", "id": "node/4837857924", "properties": { "@id": "node/4837857924", "amenity": "cafe", "name:en": "David Sodri" }, "geometry": { "type": "Point", "coordinates": [ 106.8718068, -6.2290692 ] } },
{ "type": "Feature", "id": "node/4839254422", "properties": { "@id": "node/4839254422", "amenity": "restaurant", "name:en": "Baso Podomoro" }, "geometry": { "type": "Point", "coordinates": [ 106.8694858, -6.2221557 ] } },
{ "type": "Feature", "id": "node/4839256323", "properties": { "@id": "node/4839256323", "name:en": "Warung Ming", "shop": "convenience" }, "geometry": { "type": "Point", "coordinates": [ 106.8697116, -6.2231376 ] } },
{ "type": "Feature", "id": "node/4840727821", "properties": { "@id": "node/4840727821", "name:en": "Warung Ustadz Said", "shop": "convenience" }, "geometry": { "type": "Point", "coordinates": [ 106.8698294, -6.2236441 ] } },
{ "type": "Feature", "id": "node/4841891115", "properties": { "@id": "node/4841891115", "addr:city": "DKI Jakarta", "addr:full": "Jalan Basuki Rahmat", "brand": "Super Indo", "brand:wikidata": "Q12518060", "name": "Super Indo", "shop": "supermarket", "source": "HOT_InAWARESurvey_2017" }, "geometry": { "type": "Point", "coordinates": [ 106.8779792, -6.224403 ] } },
{ "type": "Feature", "id": "node/4844991028", "properties": { "@id": "node/4844991028", "amenity": "cafe", "name": "Mezza" }, "geometry": { "type": "Point", "coordinates": [ 106.8369075, -6.2191613 ] } },
{ "type": "Feature", "id": "node/4847207525", "properties": { "@id": "node/4847207525", "addr:city": "Jakarta Selatan", "addr:housenumber": "47", "addr:postcode": "12820", "addr:street": "Jalan Tebet Timur Dalam", "amenity": "restaurant", "cuisine": "noodle", "name": "Bakso Soun & Mie Ayam TTD 47", "name:en": "Bakso Soun & Mie Ayam TTD 47", "name:id": "Bakso Soun & Mie Ayam TTD 47", "opening_hours": "Tu-Su 11:00-21:00", "takeaway": "yes" }, "geometry": { "type": "Point", "coordinates": [ 106.8568241, -6.2329667 ] } },
{ "type": "Feature", "id": "node/4878818621", "properties": { "@id": "node/4878818621", "addr:city": "Jatinegara", "addr:housename": "La Terrasse", "addr:housenumber": "1A", "addr:postcode": "13340", "addr:street": "Cipinang Cempedak II", "amenity": "cafe", "cuisine": "coffee_shop", "internet_access": "wlan", "internet_access:fee": "no", "name": "La Terrasse", "website": "laterrasse.cf/wp" }, "geometry": { "type": "Point", "coordinates": [ 106.870225, -6.237344 ] } },
{ "type": "Feature", "id": "node/4882413932", "properties": { "@id": "node/4882413932", "addr:city": "DKI Jakarta", "addr:full": "Jalan Paus", "brand": "Super Indo", "brand:wikidata": "Q12518060", "name": "Super Indo", "shop": "supermarket", "source": "HOT_InAWARESurvey_2017" }, "geometry": { "type": "Point", "coordinates": [ 106.8906367, -6.1941301 ] } },
{ "type": "Feature", "id": "node/5129999994", "properties": { "@id": "node/5129999994", "amenity": "restaurant", "cuisine": "regional", "name": "Nasi Padang", "takeaway": "yes" }, "geometry": { "type": "Point", "coordinates": [ 106.8685064, -6.1942098 ] } },
{ "type": "Feature", "id": "node/5683660521", "properties": { "@id": "node/5683660521", "amenity": "restaurant", "name:en": "frenchie", "website": "https://m.facebook.com/frenchie.indo/" }, "geometry": { "type": "Point", "coordinates": [ 106.8470975, -6.2363521 ] } },
{ "type": "Feature", "id": "node/5890743785", "properties": { "@id": "node/5890743785", "amenity": "cafe", "cuisine": "coffee_shop", "name:en": "Big Ben Kopi" }, "geometry": { "type": "Point", "coordinates": [ 106.8518906, -6.2384245 ] } },
{ "type": "Feature", "id": "node/5892880585", "properties": { "@id": "node/5892880585", "amenity": "cafe", "cuisine": "coffee_shop", "name:en": "Dulitas coffee" }, "geometry": { "type": "Point", "coordinates": [ 106.845272, -6.2405983 ] } },
{ "type": "Feature", "id": "node/5892882187", "properties": { "@id": "node/5892882187", "amenity": "restaurant", "cuisine": "indonesian", "name:en": "Bakso Rusuk" }, "geometry": { "type": "Point", "coordinates": [ 106.8473147, -6.2382232 ] } },
{ "type": "Feature", "id": "node/5892882188", "properties": { "@id": "node/5892882188", "brand": "Indomaret", "brand:wikidata": "Q4262825", "brand:wikipedia": "en:Indomaret", "name": "Indomaret", "name:en": "Indomaret", "shop": "convenience" }, "geometry": { "type": "Point", "coordinates": [ 106.8473305, -6.2383401 ] } },
{ "type": "Feature", "id": "node/5892904485", "properties": { "@id": "node/5892904485", "amenity": "restaurant", "cuisine": "indonesian", "name:en": "Mie Ckr Bandung" }, "geometry": { "type": "Point", "coordinates": [ 106.8471722, -6.237625 ] } },
{ "type": "Feature", "id": "node/5892904486", "properties": { "@id": "node/5892904486", "amenity": "restaurant", "cuisine": "grill", "name:en": "The Cutt" }, "geometry": { "type": "Point", "coordinates": [ 106.8469627, -6.2356308 ] } },
{ "type": "Feature", "id": "node/5892904487", "properties": { "@id": "node/5892904487", "amenity": "restaurant", "cuisine": "lebanese", "name:en": "Larazeta" }, "geometry": { "type": "Point", "coordinates": [ 106.846792, -6.2348147 ] } },
{ "type": "Feature", "id": "node/5892904488", "properties": { "@id": "node/5892904488", "amenity": "restaurant", "cuisine": "indonesian", "name:en": "Ayam Kremes Kraton" }, "geometry": { "type": "Point", "coordinates": [ 106.846444, -6.2348113 ] } },
{ "type": "Feature", "id": "node/5892912586", "properties": { "@id": "node/5892912586", "amenity": "cafe", "cuisine": "coffee_shop", "name:en": "Coffit" }, "geometry": { "type": "Point", "coordinates": [ 106.8464575, -6.2346666 ] } },
{ "type": "Feature", "id": "node/5892947785", "properties": { "@id": "node/5892947785", "name:en": "Almondtree Cakes & Pastries", "shop": "bakery" }, "geometry": { "type": "Point", "coordinates": [ 106.8469736, -6.2359837 ] } },
{ "type": "Feature", "id": "node/6161025674", "properties": { "@id": "node/6161025674", "addr:housenumber": "9", "addr:street": "Jl. Jatinegara Timur II", "amenity": "restaurant", "brand": "Loving Hut", "brand:wikidata": "Q3491655", "brand:wikipedia": "en:Loving Hut", "cuisine": "international", "diet:vegan": "only", "diet:vegetarian": "only", "name": "Loving Hut", "opening_hours": "Mo-Su 08:00-21:00", "phone": "+62 21 85919168", "website": "http://www.lovinghut.co.id" }, "geometry": { "type": "Point", "coordinates": [ 106.8685541, -6.2183553 ] } },
{ "type": "Feature", "id": "node/6218997187", "properties": { "@id": "node/6218997187", "brand": "Indomaret", "brand:wikidata": "Q4262825", "name": "Indomaret", "name:en": "Indomaret", "opening_hours": "Mo-Su 07:00-22:00", "shop": "convenience" }, "geometry": { "type": "Point", "coordinates": [ 106.8578606, -6.2038482 ] } },
{ "type": "Feature", "id": "node/6219010690", "properties": { "@id": "node/6219010690", "brand": "Indomaret", "brand:wikidata": "Q4262825", "name": "Indomaret", "name:en": "Indomaret", "opening_hours": "24/7", "shop": "convenience" }, "geometry": { "type": "Point", "coordinates": [ 106.8570257, -6.2034972 ] } },
{ "type": "Feature", "id": "node/6219014687", "properties": { "@id": "node/6219014687", "amenity": "restaurant", "name:en": "Munik", "website": "http://www.munikrestro.com" }, "geometry": { "type": "Point", "coordinates": [ 106.8573866, -6.204811 ] } },
{ "type": "Feature", "id": "node/6219014691", "properties": { "@id": "node/6219014691", "amenity": "cafe", "brand": "Starbucks", "brand:wikidata": "Q37158", "cuisine": "coffee_shop", "name": "Starbucks", "name:en": "Starbucks", "official_name": "Starbucks Coffee", "takeaway": "yes" }, "geometry": { "type": "Point", "coordinates": [ 106.8545634, -6.2007002 ] } },
{ "type": "Feature", "id": "node/6219025990", "properties": { "@id": "node/6219025990", "brand": "Indomaret", "brand:wikidata": "Q4262825", "name": "Indomaret", "name:en": "Indomaret", "opening_hours": "Mo-Su 07:00-22:00", "shop": "convenience" }, "geometry": { "type": "Point", "coordinates": [ 106.8583681, -6.2053203 ] } },
{ "type": "Feature", "id": "node/6249608692", "properties": { "@id": "node/6249608692", "brand": "Alfamart", "brand:wikidata": "Q23745600", "brand:wikipedia": "en:Alfamart", "name": "Alfamart", "name:en": "Alfamart", "opening_hours": "Mo-Su 06:00-23:00", "shop": "convenience" }, "geometry": { "type": "Point", "coordinates": [ 106.8468927, -6.2295266 ] } },
{ "type": "Feature", "id": "node/6249668686", "properties": { "@id": "node/6249668686", "amenity": "restaurant", "name": "Bakmi GM" }, "geometry": { "type": "Point", "coordinates": [ 106.8445463, -6.24227 ] } },
{ "type": "Feature", "id": "node/6249685787", "properties": { "@id": "node/6249685787", "brand": "Indomaret", "brand:wikidata": "Q4262825", "brand:wikipedia": "en:Indomaret", "name": "Indomaret", "name:en": "Indomaret", "opening_hours": "24/7", "shop": "convenience" }, "geometry": { "type": "Point", "coordinates": [ 106.8445705, -6.232317 ] } },
{ "type": "Feature", "id": "node/6249711364", "properties": { "@id": "node/6249711364", "addr:city": "DKI Jakarta", "addr:country": "ID", "addr:housenumber": "188", "addr:place": "tebet", "addr:postcode": "12870", "addr:street": "Jalan Dokter Saharjo", "amenity": "cafe", "cuisine": "coffee_shop", "internet_access": "yes", "internet_access:fee": "customers", "name": "Sudut Sedjenak - Tebet", "opening_hours": "Mo-Su 09:00-21:00", "outdoor_seating": "yes", "phone": "+622122833282", "website": "https://g.page/sudut-tebet/" }, "geometry": { "type": "Point", "coordinates": [ 106.846999, -6.2227388 ] } },
{ "type": "Feature", "id": "node/6249713409", "properties": { "@id": "node/6249713409", "name:en": "Majestyk", "shop": "bakery" }, "geometry": { "type": "Point", "coordinates": [ 106.8477418, -6.2251883 ] } },
{ "type": "Feature", "id": "node/6249714147", "properties": { "@id": "node/6249714147", "brand": "Indomaret", "brand:wikidata": "Q4262825", "brand:wikipedia": "en:Indomaret", "name": "Indomaret", "name:en": "Indomaret", "opening_hours": "24/7", "shop": "convenience" }, "geometry": { "type": "Point", "coordinates": [ 106.8440999, -6.2159805 ] } },
{ "type": "Feature", "id": "node/6249714150", "properties": { "@id": "node/6249714150", "brand": "Alfamidi", "brand:wikidata": "Q12471462", "brand:wikipedia": "id:Alfamidi", "name": "Alfamidi", "name:en": "Alfamidi", "opening_hours": "24/7", "shop": "convenience" }, "geometry": { "type": "Point", "coordinates": [ 106.8436944, -6.2129347 ] } },
{ "type": "Feature", "id": "node/6249714151", "properties": { "@id": "node/6249714151", "amenity": "restaurant", "cuisine": "indonesian", "name:en": "Simpang Raya" }, "geometry": { "type": "Point", "coordinates": [ 106.8440752, -6.2116566 ] } },
{ "type": "Feature", "id": "node/6249717196", "properties": { "@id": "node/6249717196", "amenity": "restaurant", "name:en": "Ayam Goreng Mbok Berek Ny Umi" }, "geometry": { "type": "Point", "coordinates": [ 106.8441283, -6.2327115 ] } },
{ "type": "Feature", "id": "node/6249717690", "properties": { "@id": "node/6249717690", "amenity": "restaurant", "name:en": "Sate Senayan" }, "geometry": { "type": "Point", "coordinates": [ 106.8448619, -6.23326 ] } },
{ "type": "Feature", "id": "node/6249773119", "properties": { "@id": "node/6249773119", "brand": "Alfamart", "brand:wikidata": "Q23745600", "name": "Alfamart", "name:en": "Alfamart", "opening_hours": "Mo-Su 07:00-22:00", "shop": "convenience" }, "geometry": { "type": "Point", "coordinates": [ 106.849563, -6.2091062 ] } },
{ "type": "Feature", "id": "node/6249773120", "properties": { "@id": "node/6249773120", "brand": "Lawson", "brand:wikidata": "Q1557223", "name": "Lawson", "name:en": "Lawson", "opening_hours": "Mo-Su 05:00-00:00", "shop": "convenience" }, "geometry": { "type": "Point", "coordinates": [ 106.8505928, -6.2102926 ] } },
{ "type": "Feature", "id": "node/6249773122", "properties": { "@id": "node/6249773122", "name:en": "Indomaret Point", "opening_hours": "Mo-Su 07:00-22:00", "shop": "convenience" }, "geometry": { "type": "Point", "coordinates": [ 106.8503254, -6.2099355 ] } },
{ "type": "Feature", "id": "node/6249773124", "properties": { "@id": "node/6249773124", "brand": "Roti'O", "brand:wikidata": "Q124354233", "name": "Roti'O", "name:en": "RotiO", "shop": "bakery" }, "geometry": { "type": "Point", "coordinates": [ 106.850573, -6.2102536 ] } },
{ "type": "Feature", "id": "node/6249775439", "properties": { "@id": "node/6249775439", "amenity": "restaurant", "cuisine": "indonesian", "name:en": "TobaTabo Lapo Batak" }, "geometry": { "type": "Point", "coordinates": [ 106.8435074, -6.2159937 ] } },
{ "type": "Feature", "id": "node/6249775440", "properties": { "@id": "node/6249775440", "brand": "Alfamidi", "brand:wikidata": "Q12471462", "brand:wikipedia": "id:Alfamidi", "name": "Alfamidi", "name:en": "Alfamidi", "opening_hours": "24/7", "shop": "convenience" }, "geometry": { "type": "Point", "coordinates": [ 106.8433067, -6.2139514 ] } },
{ "type": "Feature", "id": "node/6249775446", "properties": { "@id": "node/6249775446", "amenity": "cafe", "brand": "Starbucks", "brand:wikidata": "Q37158", "cuisine": "coffee_shop", "name": "Starbucks", "name:en": "Starbucks", "official_name": "Starbucks Coffee", "opening_hours": "Mo-Fr 06:00-21:00; Sa-Su 07:00-21:00", "takeaway": "yes" }, "geometry": { "type": "Point", "coordinates": [ 106.8505391, -6.2102133 ] } },
{ "type": "Feature", "id": "node/6249775447", "properties": { "@id": "node/6249775447", "brand": "Circle K", "brand:wikidata": "Q3268010", "name": "Circle K", "name:en": "Circle-K", "opening_hours": "Mo-Su 05:00-00:00", "shop": "convenience" }, "geometry": { "type": "Point", "coordinates": [ 106.8504622, -6.2101094 ] } },
{ "type": "Feature", "id": "node/6249775608", "properties": { "@id": "node/6249775608", "brand": "Alfa Express", "brand:wikidata": "Q12471463", "name": "Alfa Express", "name:en": "Alfa Express", "opening_hours": "Mo-Su 07:00-22:00", "shop": "convenience" }, "geometry": { "type": "Point", "coordinates": [ 106.850217, -6.2097778 ] } },
{ "type": "Feature", "id": "node/6249961585", "properties": { "@id": "node/6249961585", "amenity": "cafe", "brand": "Starbucks", "brand:wikidata": "Q37158", "brand:wikipedia": "en:Starbucks", "cuisine": "coffee_shop", "name": "Starbucks", "name:en": "Starbucks", "official_name": "Starbucks Coffee", "takeaway": "yes" }, "geometry": { "type": "Point", "coordinates": [ 106.8447702, -6.2331815 ] } },
{ "type": "Feature", "id": "node/6249961885", "properties": { "@id": "node/6249961885", "brand": "Indomaret", "brand:wikidata": "Q4262825", "brand:wikipedia": "en:Indomaret", "name": "Indomaret", "name:en": "Indomaret", "opening_hours": "Mo-Su 07:00-22:00", "shop": "convenience" }, "geometry": { "type": "Point", "coordinates": [ 106.8437486, -6.2162653 ] } },
{ "type": "Feature", "id": "node/6276662120", "properties": { "@id": "node/6276662120", "addr:city": "DKI Jakarta", "addr:housenumber": "216", "addr:postcode": "12870", "addr:street": "Jalan Doktor Saharjo", "amenity": "cafe", "cuisine": "coffee_shop", "name": "Studio Coffee", "outdoor_seating": "yes", "takeaway": "yes" }, "geometry": { "type": "Point", "coordinates": [ 106.8469856, -6.2228247 ] } },
{ "type": "Feature", "id": "node/6385126285", "properties": { "@id": "node/6385126285", "brand": "Holland Bakery", "brand:wikidata": "Q19726345", "name": "Holland Bakery", "name:en": "Holland Bakery", "shop": "bakery" }, "geometry": { "type": "Point", "coordinates": [ 106.847359, -6.2411566 ] } },
{ "type": "Feature", "id": "node/6395072085", "properties": { "@id": "node/6395072085", "amenity": "cafe", "brand": "Starbucks", "brand:wikidata": "Q37158", "brand:wikipedia": "en:Starbucks", "cuisine": "coffee_shop", "name": "Starbucks", "name:en": "Starbucks", "official_name": "Starbucks Coffee", "takeaway": "yes" }, "geometry": { "type": "Point", "coordinates": [ 106.853132, -6.2293902 ] } },
{ "type": "Feature", "id": "node/6395104486", "properties": { "@id": "node/6395104486", "amenity": "restaurant" }, "geometry": { "type": "Point", "coordinates": [ 106.852985, -6.229473 ] } },
{ "type": "Feature", "id": "node/6397583686", "properties": { "@id": "node/6397583686", "amenity": "cafe", "name:en": "Colony" }, "geometry": { "type": "Point", "coordinates": [ 106.8559431, -6.2285616 ] } },
{ "type": "Feature", "id": "node/6397583687", "properties": { "@id": "node/6397583687", "amenity": "restaurant", "name:en": "Pick Nick" }, "geometry": { "type": "Point", "coordinates": [ 106.8558918, -6.2284778 ] } },
{ "type": "Feature", "id": "node/6397588185", "properties": { "@id": "node/6397588185", "addr:city": "Jakarta Selatan", "addr:housenumber": "64", "addr:postcode": "12820", "addr:state": "DKI Jakarta", "addr:street": "Jalan Tebet Raya", "air_conditioning": "yes", "branch": "Tebet Raya", "brand": "Alfamidi", "brand:wikidata": "Q12471462", "level": "1", "name": "Alfamidi", "name:en": "Alfamidi", "opening_hours": "24/7", "shop": "convenience" }, "geometry": { "type": "Point", "coordinates": [ 106.8553719, -6.2285607 ] } },
{ "type": "Feature", "id": "node/6400014585", "properties": { "@id": "node/6400014585", "addr:housenumber": "153", "addr:street": "Jalan Tebet Timur Dalam Raya", "amenity": "cafe", "cuisine": "coffee_shop", "internet_access": "wlan", "internet_access:fee": "customers", "name": "AUTOKOFFIE", "opening_hours": "Mo-Su 11:00-23:00", "outdoor_seating": "yes" }, "geometry": { "type": "Point", "coordinates": [ 106.8543759, -6.2405908 ] } },
{ "type": "Feature", "id": "node/6400014586", "properties": { "@id": "node/6400014586", "brand": "Circle K", "brand:wikidata": "Q3268010", "brand:wikipedia": "en:Circle K", "name": "Circle K", "name:en": "Circle K", "shop": "convenience" }, "geometry": { "type": "Point", "coordinates": [ 106.8497231, -6.238437 ] } },
{ "type": "Feature", "id": "node/6583340354", "properties": { "@id": "node/6583340354", "amenity": "restaurant", "name": "Rumah Makan Ageng" }, "geometry": { "type": "Point", "coordinates": [ 106.8521148, -6.2421299 ] } },
{ "type": "Feature", "id": "node/6583340355", "properties": { "@id": "node/6583340355", "amenity": "cafe", "name": "Bright Cafe" }, "geometry": { "type": "Point", "coordinates": [ 106.852385, -6.2423069 ] } },
{ "type": "Feature", "id": "node/6583340356", "properties": { "@id": "node/6583340356", "amenity": "restaurant", "name": "Warung Solo" }, "geometry": { "type": "Point", "coordinates": [ 106.8509258, -6.2419056 ] } },
{ "type": "Feature", "id": "node/6583340357", "properties": { "@id": "node/6583340357", "amenity": "restaurant", "name": "Waroeng Bella-1995" }, "geometry": { "type": "Point", "coordinates": [ 106.8476133, -6.2402911 ] } },
{ "type": "Feature", "id": "node/6583340358", "properties": { "@id": "node/6583340358", "amenity": "restaurant", "name": "Pempek Ibu Sulastri" }, "geometry": { "type": "Point", "coordinates": [ 106.8483375, -6.2398272 ] } },
{ "type": "Feature", "id": "node/6583358886", "properties": { "@id": "node/6583358886", "addr:full": "Jalan Tebet Barat Raya", "name": "Tam's", "shop": "bakery" }, "geometry": { "type": "Point", "coordinates": [ 106.8506871, -6.2327674 ] } },
{ "type": "Feature", "id": "node/6862458085", "properties": { "@id": "node/6862458085", "amenity": "restaurant", "name:en": "Sambal Setan Lambe Turah" }, "geometry": { "type": "Point", "coordinates": [ 106.8452888, -6.2100186 ] } },
{ "type": "Feature", "id": "node/7065438285", "properties": { "@id": "node/7065438285", "amenity": "cafe", "name:en": "Oh La La Cafe", "opening_hours": "Mo-Su 09:00-22:00" }, "geometry": { "type": "Point", "coordinates": [ 106.8453665, -6.2235393 ] } },
{ "type": "Feature", "id": "node/7254719785", "properties": { "@id": "node/7254719785", "name:en": "mn1", "shop": "bakery" }, "geometry": { "type": "Point", "coordinates": [ 106.8501113, -6.2207797 ] } },
{ "type": "Feature", "id": "node/7701867985", "properties": { "@id": "node/7701867985", "addr:city": "Jakarta Selatan", "addr:housenumber": "27", "addr:postcode": "12820", "addr:street": "Jalan Tebet Utara Dalam", "amenity": "restaurant", "cuisine": "indonesian", "diet:halal": "yes", "name:en": "Sleepless Owls Coffe and Street Food", "opening_hours": "Mo-Su 11:00-23:00", "phone": "(021) 22837396" }, "geometry": { "type": "Point", "coordinates": [ 106.8546761, -6.2261006 ] } },
{ "type": "Feature", "id": "node/7710096266", "properties": { "@id": "node/7710096266", "amenity": "restaurant", "name": "Sate Kambing Batibul Bang Awi" }, "geometry": { "type": "Point", "coordinates": [ 106.8443653, -6.217481 ] } },
{ "type": "Feature", "id": "node/7710096268", "properties": { "@id": "node/7710096268", "addr:street": "Jalan Dokter Saharjo", "amenity": "restaurant", "name": "Bakso Kota Cak Man" }, "geometry": { "type": "Point", "coordinates": [ 106.8443728, -6.2175281 ] } },
{ "type": "Feature", "id": "node/7710378835", "properties": { "@id": "node/7710378835", "addr:street": "Jalan Dokter Saharjo", "amenity": "restaurant", "name": "WARUNG SATE SOLO IBU LIA" }, "geometry": { "type": "Point", "coordinates": [ 106.8448179, -6.218069 ] } },
{ "type": "Feature", "id": "node/8837144065", "properties": { "@id": "node/8837144065", "addr:city": "DKI Jakarta", "addr:housenumber": "18", "addr:postcode": "12840", "addr:street": "Jalan Sawo Kecik V", "amenity": "restaurant", "cuisine": "noodles;mie_ayam", "description": "MIE AYAM SETAPAK Tersedia di GoFood GrabFood ShopeeFood", "diet:halal": "yes", "diet:healthy": "yes", "name": "Mie Ayam Setapak", "opening_hours": "11:00-22:00", "takeaway": "yes", "website": "https://mie-ayam-setapak.business.site" }, "geometry": { "type": "Point", "coordinates": [ 106.8575251, -6.2230195 ] } },
{ "type": "Feature", "id": "node/9227203690", "properties": { "@id": "node/9227203690", "addr:city": "South Jakarta", "addr:housenumber": "41", "addr:postcode": "12980", "addr:street": "Jalan Halimun Raya", "amenity": "cafe", "cuisine": "coffee_shop;teahouse;cafe", "internet_access": "wlan", "internet_access:fee": "customers", "name": "Sajiwa Coffee & Tea", "outdoor_seating": "yes", "phone": "+6285159390188", "smoking": "outside", "website": "https://sajiwacoffeetea.business.site" }, "geometry": { "type": "Point", "coordinates": [ 106.8325878, -6.208207 ] } },
{ "type": "Feature", "id": "node/9678833691", "properties": { "@id": "node/9678833691", "amenity": "cafe", "name": "Kopi Kotak - Tebet Barat" }, "geometry": { "type": "Point", "coordinates": [ 106.8491398, -6.238863 ] } },
{ "type": "Feature", "id": "node/9679174696", "properties": { "@id": "node/9679174696", "amenity": "restaurant", "name": "Restoran Pagi Sore Tebet" }, "geometry": { "type": "Point", "coordinates": [ 106.847079, -6.2246828 ] } },
{ "type": "Feature", "id": "node/9679280634", "properties": { "@id": "node/9679280634", "amenity": "cafe", "name": "Kopi Bajawa Flores - Tebet Timur" }, "geometry": { "type": "Point", "coordinates": [ 106.8562878, -6.2322751 ] } },
{ "type": "Feature", "id": "node/9679355269", "properties": { "@id": "node/9679355269", "branch": "Abdullah Syafei", "brand": "Lawson", "brand:wikidata": "Q1557223", "brand:wikipedia": "en:Lawson (store)", "name": "Lawson", "shop": "convenience" }, "geometry": { "type": "Point", "coordinates": [ 106.8575914, -6.2258347 ] } },
{ "type": "Feature", "id": "node/9679378519", "properties": { "@id": "node/9679378519", "amenity": "cafe", "name": "Warunk Upnormal - Tebet" }, "geometry": { "type": "Point", "coordinates": [ 106.8575323, -6.2258265 ] } },
{ "type": "Feature", "id": "node/9681881620", "properties": { "@id": "node/9681881620", "amenity": "restaurant", "name": "RM Sinar Minang Stasiun Jatinegara" }, "geometry": { "type": "Point", "coordinates": [ 106.8703912, -6.2157499 ] } },
{ "type": "Feature", "id": "node/9681904282", "properties": { "@id": "node/9681904282", "amenity": "restaurant", "name": "Asinan Betawi Asymuni - H Udin - Hj Tati" }, "geometry": { "type": "Point", "coordinates": [ 106.8670998, -6.2117156 ] } },
{ "type": "Feature", "id": "node/9701925072", "properties": { "@id": "node/9701925072", "brand": "Holland Bakery", "brand:wikidata": "Q19726345", "name": "Holland Bakery", "shop": "bakery" }, "geometry": { "type": "Point", "coordinates": [ 106.859821, -6.2091197 ] } },
{ "type": "Feature", "id": "node/9708877429", "properties": { "@id": "node/9708877429", "brand": "Alfamidi", "brand:wikidata": "Q12471462", "name": "Alfamidi", "shop": "convenience" }, "geometry": { "type": "Point", "coordinates": [ 106.8697719, -6.2425986 ] } },
{ "type": "Feature", "id": "node/9729352902", "properties": { "@id": "node/9729352902", "amenity": "cafe", "name": "Kopi Nako - Tebet" }, "geometry": { "type": "Point", "coordinates": [ 106.8524815, -6.2420002 ] } },
{ "type": "Feature", "id": "node/9731816306", "properties": { "@id": "node/9731816306", "amenity": "cafe", "branch": "Menara Bidakara", "brand": "Starbucks", "brand:wikidata": "Q37158", "building": "yes", "cuisine": "coffee_shop", "name": "Starbucks", "official_name": "Starbucks Coffee", "takeaway": "yes" }, "geometry": { "type": "Point", "coordinates": [ 106.8415977, -6.2416557 ] } },
{ "type": "Feature", "id": "node/9747791265", "properties": { "@id": "node/9747791265", "amenity": "cafe", "branch": "Cipinang Cempedak", "cuisine": "asian", "internet_access": "yes", "internet_access:fee": "no", "name": "Bruen Coffee Kitchen", "outdoor_seating": "yes" }, "geometry": { "type": "Point", "coordinates": [ 106.8760141, -6.2325768 ] } },
{ "type": "Feature", "id": "node/9748180103", "properties": { "@id": "node/9748180103", "amenity": "cafe", "branch": "Mall Bassura", "name": "Fore Coffee" }, "geometry": { "type": "Point", "coordinates": [ 106.8783838, -6.2236789 ] } },
{ "type": "Feature", "id": "node/9748616586", "properties": { "@id": "node/9748616586", "amenity": "restaurant", "cuisine": "asian", "name": "Bakso Wonogiri Belakang Masjid Al Bakrie" }, "geometry": { "type": "Point", "coordinates": [ 106.8379643, -6.2193044 ] } },
{ "type": "Feature", "id": "node/9751219903", "properties": { "@id": "node/9751219903", "amenity": "restaurant", "name": "Sate Taichan Goreng Tebet" }, "geometry": { "type": "Point", "coordinates": [ 106.8556056, -6.2285003 ] } },
{ "type": "Feature", "id": "node/9751340234", "properties": { "@id": "node/9751340234", "amenity": "restaurant", "branch": "Manggarai", "name": "Sate Padang Goyang Lidah" }, "geometry": { "type": "Point", "coordinates": [ 106.8508574, -6.2103392 ] } },
{ "type": "Feature", "id": "node/9753410225", "properties": { "@id": "node/9753410225", "branch": "HK Office Tower", "brand": "FamilyMart", "brand:wikidata": "Q1191685", "name": "FamilyMart", "shop": "convenience" }, "geometry": { "type": "Point", "coordinates": [ 106.8730241, -6.245314 ] } },
{ "type": "Feature", "id": "node/9810495226", "properties": { "@id": "node/9810495226", "amenity": "cafe", "brand": "Starbucks", "brand:wikidata": "Q37158", "cuisine": "coffee_shop", "name": "Starbucks", "official_name": "Starbucks Coffee", "takeaway": "yes" }, "geometry": { "type": "Point", "coordinates": [ 106.8482506, -6.2428896 ] } },
{ "type": "Feature", "id": "node/9810495229", "properties": { "@id": "node/9810495229", "amenity": "restaurant", "name": "Raa Cha" }, "geometry": { "type": "Point", "coordinates": [ 106.8480486, -6.2429186 ] } },
{ "type": "Feature", "id": "node/9826648194", "properties": { "@id": "node/9826648194", "addr:city": "Jakarta Timur", "addr:housenumber": "50", "addr:postcode": "13130", "addr:street": "Jalan Kayu Manis Barat", "amenity": "restaurant", "cuisine": "daerahregional", "diet:halal": "yes", "name": "Nasi Uduk & Ulam Bunda Aldo", "opening_hours": "Mo-Su 06:00 - 09:00", "payment:cash": "yes", "phone": "+6287759232000", "takeaway": "yes" }, "geometry": { "type": "Point", "coordinates": [ 106.8604935, -6.2018764 ] } },
{ "type": "Feature", "id": "node/9932760489", "properties": { "@id": "node/9932760489", "addr:street": "Jalan Tebet Dalam II", "brand": "Alfamidi", "brand:wikidata": "Q12471462", "mapillary": "2219966818180934", "name": "Alfamidi", "shop": "convenience", "source": "extrapolation" }, "geometry": { "type": "Point", "coordinates": [ 106.8495633, -6.226886 ] } },
{ "type": "Feature", "id": "node/9932775137", "properties": { "@id": "node/9932775137", "addr:street": "Jalan Tebet Raya", "brand": "Indomaret", "brand:wikidata": "Q4262825", "mapillary": "374476324775876", "name": "Indomaret", "shop": "convenience", "source": "extrapolation" }, "geometry": { "type": "Point", "coordinates": [ 106.8513376, -6.230299 ] } },
{ "type": "Feature", "id": "node/9938306369", "properties": { "@id": "node/9938306369", "addr:street": "Jalan Matraman", "brand": "Indomaret", "brand:wikidata": "Q4262825", "mapillary": "315712509916485", "name": "Indomaret", "shop": "convenience", "source": "extrapolation" }, "geometry": { "type": "Point", "coordinates": [ 106.8608688, -6.2126579 ] } },
{ "type": "Feature", "id": "node/9938567819", "properties": { "@id": "node/9938567819", "addr:street": "Jalan Kramat Asem Raya", "brand": "Alfamidi", "brand:wikidata": "Q12471462", "mapillary": "480532236488716", "name": "Alfamidi", "shop": "convenience", "source": "extrapolation" }, "geometry": { "type": "Point", "coordinates": [ 106.8722754, -6.2040571 ] } },
{ "type": "Feature", "id": "node/9943849216", "properties": { "@id": "node/9943849216", "addr:street": "Jalan Kramat Asem Raya", "brand": "Alfamart", "brand:wikidata": "Q23745600", "mapillary": "2964274123895353", "name": "Alfamart", "shop": "convenience", "source": "extrapolation" }, "geometry": { "type": "Point", "coordinates": [ 106.867591, -6.203571 ] } },
{ "type": "Feature", "id": "node/9948539378", "properties": { "@id": "node/9948539378", "addr:street": "Jalan Cipinang Bunder", "brand": "Indomaret", "brand:wikidata": "Q4262825", "mapillary": "324243509050292", "name": "Indomaret", "shop": "convenience", "source": "extrapolation" }, "geometry": { "type": "Point", "coordinates": [ 106.8862699, -6.2070785 ] } },
{ "type": "Feature", "id": "node/10048902218", "properties": { "@id": "node/10048902218", "amenity": "restaurant", "check_date": "2022-09-24", "cuisine": "coffee_shop;asian", "diet:halal": "yes", "internet_access": "no", "name": "Mie Aceh Jaly-jaly", "wheelchair": "yes" }, "geometry": { "type": "Point", "coordinates": [ 106.8452934, -6.2388638 ] } },
{ "type": "Feature", "id": "node/10052627717", "properties": { "@id": "node/10052627717", "addr:housenumber": "9", "addr:postcode": "12820", "addr:street": "Jalan Tebet Timur Raya", "amenity": "restaurant", "contact:instagram": "tamanteras.jkt", "internet_access": "wlan", "name": "Tamanteras", "opening_hours": "Mo-Su 10:00-21:00", "website": "https://linktr.ee/TamanTerasJkt" }, "geometry": { "type": "Point", "coordinates": [ 106.8536555, -6.2373163 ] } },
{ "type": "Feature", "id": "node/10052810117", "properties": { "@id": "node/10052810117", "addr:city": "Jakarta Selatan", "addr:housenumber": "123", "addr:postcode": "12820", "addr:street": "Jalan Tebet Timur Dalam Raya", "air_conditioning": "yes", "amenity": "restaurant", "brand": "JONKIRA", "contact:instagram": "jonkira.id", "cuisine": "ramen", "email": "halo@jonkira.com", "level": "1", "name": "JONKIRA", "opening_hours": "Mo-Su 10:00-22:00", "phone": "+62 877 2304 1985" }, "geometry": { "type": "Point", "coordinates": [ 106.8568949, -6.2381724 ] } },
{ "type": "Feature", "id": "node/10052812517", "properties": { "@id": "node/10052812517", "addr:city": "Jakarta Selatan", "addr:housenumber": "123", "addr:postcode": "12820", "addr:street": "Jalan Tebet Timur Dalam Raya", "air_conditioning": "yes", "amenity": "restaurant", "branch": "Tebet Timur", "brand": "Fish Streat", "contact:instagram": "fishstreat", "cuisine": "fish_and_chips;pasta", "level": "1", "name": "Fish Streat", "opening_hours": "Mo-Su 10:00-22:00", "website": "https://fishstreat.com" }, "geometry": { "type": "Point", "coordinates": [ 106.8569012, -6.2381439 ] } },
{ "type": "Feature", "id": "node/10053941317", "properties": { "@id": "node/10053941317", "addr:city": "Jakarta Selatan", "addr:housenumber": "126", "addr:postcode": "12820", "addr:street": "Jalan Tebet Timur Dalam Raya", "amenity": "cafe", "contact:instagram": "selawaktucoffee", "cuisine": "coffee_shop", "internet_access": "wlan", "internet_access:fee": "customers", "internet_access:ssid": "Selawaktu", "level": "1", "name": "Selawaktu Coffee", "opening_hours": "Mo-Su 10:00-00:00", "outdoor_seating": "yes", "phone": "+6287777703151", "website": "https://selawaktu.com" }, "geometry": { "type": "Point", "coordinates": [ 106.8571075, -6.2355017 ] } },
{ "type": "Feature", "id": "node/10058647611", "properties": { "@id": "node/10058647611", "addr:city": "Jakarta Selatan", "addr:postcode": "12820", "addr:street": "Jalan Tebet Timur Dalam Raya", "amenity": "restaurant", "name": "Sajian Selasar", "opening_hours": "Mo-Su 07:00-22:00" }, "geometry": { "type": "Point", "coordinates": [ 106.8569836, -6.2344478 ] } },
{ "type": "Feature", "id": "node/10058647612", "properties": { "@id": "node/10058647612", "amenity": "restaurant", "name": "Soto Mat Tjangkir Tebet" }, "geometry": { "type": "Point", "coordinates": [ 106.8569824, -6.2344307 ] } },
{ "type": "Feature", "id": "node/10101656687", "properties": { "@id": "node/10101656687", "amenity": "restaurant", "cuisine": "indonesian", "name": "Solaria" }, "geometry": { "type": "Point", "coordinates": [ 106.848477, -6.2425668 ] } },
{ "type": "Feature", "id": "node/10101656688", "properties": { "@id": "node/10101656688", "amenity": "restaurant", "cuisine": "dutch", "name": "HEMA" }, "geometry": { "type": "Point", "coordinates": [ 106.8481404, -6.2428168 ] } },
{ "type": "Feature", "id": "node/10101656689", "properties": { "@id": "node/10101656689", "amenity": "restaurant", "cuisine": "dutch", "name": "HEMA" }, "geometry": { "type": "Point", "coordinates": [ 106.8482342, -6.2427001 ] } },
{ "type": "Feature", "id": "node/10101656694", "properties": { "@id": "node/10101656694", "brand": "Indomaret", "brand:wikidata": "Q4262825", "name": "Indomaret", "shop": "convenience" }, "geometry": { "type": "Point", "coordinates": [ 106.8482128, -6.2425735 ] } },
{ "type": "Feature", "id": "node/10101656695", "properties": { "@id": "node/10101656695", "amenity": "restaurant", "brand": "Steak 21", "cuisine": "steak_house", "name": "Steak 21" }, "geometry": { "type": "Point", "coordinates": [ 106.847903, -6.2429281 ] } },
{ "type": "Feature", "id": "node/10101656696", "properties": { "@id": "node/10101656696", "amenity": "cafe", "brand": "The Coffee Bean & Tea Leaf", "brand:wikidata": "Q1141384", "cuisine": "coffee_shop", "name": "The Coffee Bean & Tea Leaf", "takeaway": "yes" }, "geometry": { "type": "Point", "coordinates": [ 106.8477353, -6.2429401 ] } },
{ "type": "Feature", "id": "node/10101656709", "properties": { "@id": "node/10101656709", "brand": "Super Indo", "brand:wikidata": "Q12518060", "name": "Super Indo", "shop": "supermarket" }, "geometry": { "type": "Point", "coordinates": [ 106.8447018, -6.2423975 ] } },
{ "type": "Feature", "id": "node/10101669202", "properties": { "@id": "node/10101669202", "amenity": "cafe", "brand": "Starbucks", "brand:wikidata": "Q37158", "cuisine": "coffee_shop", "name": "Starbucks", "official_name": "Starbucks Coffee", "takeaway": "yes" }, "geometry": { "type": "Point", "coordinates": [ 106.875405, -6.2450531 ] } },
{ "type": "Feature", "id": "node/10102658576", "properties": { "@id": "node/10102658576", "amenity": "cafe", "check_date": "2022-10-15", "name": "Warung Kopi Bang Ari" }, "geometry": { "type": "Point", "coordinates": [ 106.8473008, -6.2369413 ] } },
{ "type": "Feature", "id": "node/10185548917", "properties": { "@id": "node/10185548917", "amenity": "cafe", "brand": "Janji Jiwa", "brand:wikidata": "Q124030785", "cuisine": "coffee_shop", "name": "Janji Jiwa", "takeaway": "yes" }, "geometry": { "type": "Point", "coordinates": [ 106.8674786, -6.2178485 ] } },
{ "type": "Feature", "id": "node/10571021898", "properties": { "@id": "node/10571021898", "brand": "Alfamart", "brand:wikidata": "Q23745600", "name": "Alfamart", "shop": "convenience" }, "geometry": { "type": "Point", "coordinates": [ 106.8614191, -6.1943526 ] } },
{ "type": "Feature", "id": "node/10666125207", "properties": { "@id": "node/10666125207", "addr:street": "Utan Kayu Utara", "amenity": "restaurant", "cuisine": "daerahregional", "name": "KAKI LIMA UTAN KAYU UTARA", "opening_hours": "Mo-Su 09:00-21:00" }, "geometry": { "type": "Point", "coordinates": [ 106.8679314, -6.1959937 ] } },
{ "type": "Feature", "id": "node/10666128959", "properties": { "@id": "node/10666128959", "addr:street": "Jalan Kayu Manis Timur", "amenity": "restaurant", "cuisine": "daerahregional", "diet:halal": "yes", "name": "KAKI LIMA KAYUMANIS", "opening_hours": "Mo-Su 09:00-21:00" }, "geometry": { "type": "Point", "coordinates": [ 106.8637747, -6.2026039 ] } },
{ "type": "Feature", "id": "node/10666128960", "properties": { "@id": "node/10666128960", "addr:street": "Jalan Kayu Manis Timur", "amenity": "restaurant", "cuisine": "daerahregional", "diet:halal": "yes", "name": "KAKI LIMA KAYU MANIS", "opening_hours": "Mo-Su 09:00-21:00" }, "geometry": { "type": "Point", "coordinates": [ 106.8637948, -6.2026639 ] } },
{ "type": "Feature", "id": "node/10666166241", "properties": { "@id": "node/10666166241", "addr:street": "Jalan Kayu Manis Timur", "amenity": "restaurant", "cuisine": "daerahregional", "name": "KAKI LIMA KAYU MANIS", "opening_hours": "Mo-Su 09:00-21:00" }, "geometry": { "type": "Point", "coordinates": [ 106.8638924, -6.203084 ] } },
{ "type": "Feature", "id": "node/10666224923", "properties": { "@id": "node/10666224923", "addr:street": "Jalan Kayu Manis Lama I", "amenity": "restaurant", "cuisine": "daerahregional", "diet:halal": "yes", "name": "KAKI LIMA PALMERIAM", "opening_hours": "Mo-Su 09:00-21:00" }, "geometry": { "type": "Point", "coordinates": [ 106.8615638, -6.2070335 ] } },
{ "type": "Feature", "id": "node/10666272628", "properties": { "@id": "node/10666272628", "amenity": "restaurant" }, "geometry": { "type": "Point", "coordinates": [ 106.8563842, -6.2054279 ] } },
{ "type": "Feature", "id": "node/10666272629", "properties": { "@id": "node/10666272629", "addr:street": "Jalan Kebon Manggis I", "amenity": "restaurant", "cuisine": "daerahregional", "name": "KAKI LIMA KEBON MANGGIS 1", "opening_hours": "Mo-Su 09:00-21:00" }, "geometry": { "type": "Point", "coordinates": [ 106.8559067, -6.2056345 ] } },
{ "type": "Feature", "id": "node/10666298279", "properties": { "@id": "node/10666298279", "addr:street": "Jalan Kebon Manggis I", "amenity": "restaurant", "cuisine": "daerahregional", "diet:halal": "yes", "name": "KAKI LIMA KEBON MANGGIS", "opening_hours": "Mo-Su 09:00-21:00" }, "geometry": { "type": "Point", "coordinates": [ 106.8562288, -6.2054278 ] } },
{ "type": "Feature", "id": "node/10666470296", "properties": { "@id": "node/10666470296", "amenity": "restaurant" }, "geometry": { "type": "Point", "coordinates": [ 106.8664568, -6.2251227 ] } },
{ "type": "Feature", "id": "node/10666470297", "properties": { "@id": "node/10666470297", "addr:street": "Jalan Jatinegara Barat 166 H", "amenity": "restaurant", "cuisine": "daerahregional", "diet:halal": "yes", "name": "KAKI LIMA KAMPUNG MELAYU 1", "opening_hours": "Mo-Su 09:00-21:00" }, "geometry": { "type": "Point", "coordinates": [ 106.866532, -6.2255935 ] } },
{ "type": "Feature", "id": "node/10666613477", "properties": { "@id": "node/10666613477", "addr:street": "Jalan Jatinegara Barat 166 H", "amenity": "restaurant", "cuisine": "daerahregional", "diet:halal": "yes", "name": "KAKI LIMA KAMPUNG MELAYU", "opening_hours": "Mo-Su 09:00-21:00" }, "geometry": { "type": "Point", "coordinates": [ 106.866248, -6.2251593 ] } },
{ "type": "Feature", "id": "node/10668885080", "properties": { "@id": "node/10668885080", "addr:street": "Jalan Matraman", "amenity": "restaurant", "cuisine": "daerahregional", "diet:halal": "yes", "name": "KAKI LIMA MATRAMAN", "opening_hours": "Mo-Su 09:00-21:00" }, "geometry": { "type": "Point", "coordinates": [ 106.8629785, -6.2141727 ] } },
{ "type": "Feature", "id": "node/10692709207", "properties": { "@id": "node/10692709207", "amenity": "restaurant", "food": "asian;satay;indonesian", "name": "Warung Sate Haji Giyo Original", "toilets:access": "yes" }, "geometry": { "type": "Point", "coordinates": [ 106.880231, -6.2265156 ] } },
{ "type": "Feature", "id": "node/10744525298", "properties": { "@id": "node/10744525298", "addr:city": "DKI Jakarta", "addr:postcode": "13230", "addr:street": "Jalan Pisangan Lama III", "name": "Global Bakery", "opening_hours": "Mo-Su 09:00-21:00", "payment:cash": "yes", "payment:debit_cards": "yes", "shop": "supermarket" }, "geometry": { "type": "Point", "coordinates": [ 106.8785212, -6.2107845 ] } },
{ "type": "Feature", "id": "node/10744584851", "properties": { "@id": "node/10744584851", "addr:city": "DKI Jakarta", "addr:postcode": "13230", "addr:street": "Jalan Pisangan Lama III", "brand": "Indomaret", "brand:wikidata": "Q4262825", "name": "Indomaret", "opening_hours": "Mo-Su 07:00-22:00", "payment:cash": "yes", "payment:contactless": "yes", "payment:debit_cards": "yes", "shop": "convenience" }, "geometry": { "type": "Point", "coordinates": [ 106.878769, -6.2063091 ] } },
{ "type": "Feature", "id": "node/10758109838", "properties": { "@id": "node/10758109838", "addr:city": "Jakarta Selatan", "addr:postcode": "12820", "addr:street": "tebet raya no 55", "amenity": "cafe", "cuisine": "dessert", "internet_access": "no", "name": "Mixue Tebet", "opening_hours": "Mo-Su 10:00-21:00" }, "geometry": { "type": "Point", "coordinates": [ 106.8550896, -6.2277059 ] } },
{ "type": "Feature", "id": "node/10758128391", "properties": { "@id": "node/10758128391", "addr:city": "Tebet, South Jakarta", "addr:housenumber": "2a", "addr:postcode": "12820", "addr:street": "Jalan Tebet Utara Dalam", "amenity": "restaurant", "cuisine": "coffee_shop;sandwich;ice_cream;indonesian", "diet:halal": "yes", "name": "Ropang OTW Tebet", "opening_hours": "Mo-Su 10:00-22:00", "phone": "(021) 21383995" }, "geometry": { "type": "Point", "coordinates": [ 106.8550419, -6.227596 ] } },
{ "type": "Feature", "id": "node/10758135234", "properties": { "@id": "node/10758135234", "addr:city": "Tebet, South Jakarta", "addr:housenumber": "55", "addr:postcode": "12820", "addr:street": "Tebet Timur Raya", "amenity": "restaurant", "cuisine": "steak_house", "diet:chicken": "yes", "diet:halal": "yes", "diet:meat": "yes", "name": "WS Waroeng Steak & Shake Tebet", "opening_hours": "Mo-Su 09:00-22:00", "phone": "+62 813-1720-0400" }, "geometry": { "type": "Point", "coordinates": [ 106.8552796, -6.2283603 ] } },
{ "type": "Feature", "id": "node/10758741476", "properties": { "@id": "node/10758741476", "addr:city": "Tebet, South Jakarta", "addr:housenumber": "64", "addr:postcode": "12820", "addr:street": "Tebet Raya No.64", "name": "alfamidi tebet raya", "opening_hours": "Mo-Su 07:00-22:00", "payment:cash": "yes", "payment:credit_cards": "yes", "payment:debit_cards": "yes", "phone": "(021) 83704612", "shop": "supermarket" }, "geometry": { "type": "Point", "coordinates": [ 106.8552622, -6.2279174 ] } },
{ "type": "Feature", "id": "node/10831630845", "properties": { "@id": "node/10831630845", "amenity": "cafe", "brand": "Chatime", "brand:wikidata": "Q16829306", "cuisine": "bubble_tea", "name": "Chatime", "opening_hours": "Mo-Su 09:00-22:00", "takeaway": "yes" }, "geometry": { "type": "Point", "coordinates": [ 106.8555506, -6.2423897 ] } },
{ "type": "Feature", "id": "node/10892560046", "properties": { "@id": "node/10892560046", "amenity": "cafe", "brand": "Haus!", "brand:wikidata": "Q114824757", "cuisine": "bubble_tea", "name": "Haus!", "opening_hours": "Mo-Su 10:00-24:00", "takeaway": "yes" }, "geometry": { "type": "Point", "coordinates": [ 106.8560886, -6.227831 ] } },
{ "type": "Feature", "id": "node/11009735739", "properties": { "@id": "node/11009735739", "brand": "Alfamart", "brand:wikidata": "Q23745600", "name": "Alfamart", "shop": "convenience" }, "geometry": { "type": "Point", "coordinates": [ 106.8668508, -6.2309836 ] } },
{ "type": "Feature", "id": "node/11690216697", "properties": { "@id": "node/11690216697", "amenity": "cafe", "name": "TAMANI KOTA KASABLANKA" }, "geometry": { "type": "Point", "coordinates": [ 106.8423554, -6.2233267 ] } },
{ "type": "Feature", "id": "node/11729666854", "properties": { "@id": "node/11729666854", "amenity": "cafe", "name": "HARRIS Cafe", "website": "https://linktr.ee/TheTubeBarLounge" }, "geometry": { "type": "Point", "coordinates": [ 106.8479191, -6.2228278 ] } },
{ "type": "Feature", "id": "node/12032748389", "properties": { "@id": "node/12032748389", "brand": "FamilyMart", "brand:wikidata": "Q1191685", "name": "FamilyMart", "shop": "convenience" }, "geometry": { "type": "Point", "coordinates": [ 106.8580083, -6.2259068 ] } },
{ "type": "Feature", "id": "node/12110031899", "properties": { "@id": "node/12110031899", "amenity": "cafe", "cuisine": "coffee_shop", "name": "Toko Kopi TUKU - SPBU bp Minangkabau", "opening_hours": "Mo-Su 07:00-21:00", "website": "tuku.coffee" }, "geometry": { "type": "Point", "coordinates": [ 106.8438024, -6.2127151 ] } },
{ "type": "Feature", "id": "node/12146079417", "properties": { "@id": "node/12146079417", "amenity": "restaurant", "name": "Nominomi delight | Tebet" }, "geometry": { "type": "Point", "coordinates": [ 106.8519223, -6.2385803 ] } },
{ "type": "Feature", "id": "node/12690975765", "properties": { "@id": "node/12690975765", "addr:street": "Jalan Cipinang Jaya II E", "amenity": "cafe", "cuisine": "coffee_shop", "name": "Warung Burjo Cipinang", "outdoor_seating": "yes" }, "geometry": { "type": "Point", "coordinates": [ 106.8814826, -6.2214005 ] } },
{ "type": "Feature", "id": "node/12691004722", "properties": { "@id": "node/12691004722", "addr:street": "Jalan Cipinang Jaya II E", "name": "Toko Sembako", "payment:cash": "yes", "payment:debit_cards": "yes", "shop": "supermarket" }, "geometry": { "type": "Point", "coordinates": [ 106.8812058, -6.2213369 ] } },
{ "type": "Feature", "id": "node/12811324566", "properties": { "@id": "node/12811324566", "addr:city": "East Jakarta", "addr:district": "Pulo Gadung", "addr:housenumber": "2", "addr:postcode": "13220", "addr:province": "DKI Jakarta", "addr:street": "Jalan Balai Pustaka Timur", "addr:subdistrict": "Rawamangun", "amenity": "restaurant", "cuisine": "regional;sunda", "diet:halal": "yes", "name": "Riung Tenda" }, "geometry": { "type": "Point", "coordinates": [ 106.8858243, -6.2011392 ] } }
]
}
